"Station Name","MONTREAL/PIERRE ELLIOTT TRUDEAU INTL A"
"Province","QUEBEC"
"Latitude","45.47"
"Longitude","-73.75"
"Elevation","36.00"
"Climate Identifier","7025250"
"WMO Identifier","71627"
"TC Identifier","YUL"
"All times are specified in Local Standard Time (LST). Add 1 hour to adjust for Daylight Saving Time where and when it is observed."

"Legend"
"E","Estimated"
"M","Missing"
"NA","Not Available"
"‡","Partner data that is not subject to review by the National Climate Archives"

"Date/Time","Year","Month","Day","Time","Data Quality","Temp (°C)","Temp Flag","Dew Point Temp (°C)","Dew Point Temp Flag","Rel Hum (%)","Rel Hum Flag","Wind Dir (10s deg)","Wind Dir Flag","Wind Spd (km/h)","Wind Spd Flag","Visibility (km)","Visibility Flag","Stn Press (kPa)","Stn Press Flag","Hmdx","Hmdx Flag","Wind Chill","Wind Chill Flag","Weather"
"2009-01-01 00:00","2009","01","01","00:00"," ","-18.5","","-25.0","","57","","27","","13","","25.0","","101.44","","","","-27","","Mainly Clear"
"2009-01-01 01:00","2009","01","01","01:00"," ","-17.7","","-24.0","","58","","28","","19","","25.0","","101.46","","","","-27","","Mostly Cloudy"
"2009-01-01 02:00","2009","01","01","02:00"," ","-18.6","","-25.7","","54","","29","","17","","25.0","","101.57","","","","-28","","Mostly Cloudy"
"2009-01-01 03:00","2009","01","01","03:00"," ","-19.3","","-26.2","","54","","28","","17","","25.0","","101.69","","","","-29","","Mainly Clear"
"2009-01-01 04:00","2009","01","01","04:00"," ","-19.2","","-26.2","","54","","28","","13","","25.0","","101.78","","","","-27","","Mostly Cloudy"
"2009-01-01 05:00","2009","01","01","05:00"," ","-19.6","","-26.6","","54","","28","","15","","25.0","","101.88","","","","-29","","Clear"
"2009-01-01 06:00","2009","01","01","06:00"," ","-19.8","","-26.7","","54","","28","","15","","25.0","","101.94","","","","-29","","Clear"
"2009-01-01 07:00","2009","01","01","07:00"," ","-19.6","","-26.0","","57","","27","","17","","24.1","","102.03","","","","-29","","Clear"
"2009-01-01 08:00","2009","01","01","08:00"," ","-20.1","","-26.0","","59","","27","","19","","24.1","","102.07","","","","-30","","Clear"
"2009-01-01 09:00","2009","01","01","09:00"," ","-19.4","","-25.3","","59","","27","","19","","24.1","","102.18","","","","-29","","Clear"
"2009-01-01 10:00","2009","01","01","10:00"," ","-18.2","","-25.1","","55","","28","","20","","24.1","","102.21","","","","-28","","Clear"
"2009-01-01 11:00","2009","01","01","11:00"," ","-17.6","","-24.8","","53","","26","","22","","24.1","","102.20","","","","-28","","Clear"
"2009-01-01 12:00","2009","01","01","12:00"," ","-16.9","","-23.8","","55","","27","","22","","24.1","","102.10","","","","-27","","Clear"
"2009-01-01 13:00","2009","01","01","13:00"," ","-16.5","","-23.2","","56","","27","","26","","24.1","","102.02","","","","-27","","Clear"
"2009-01-01 14:00","2009","01","01","14:00"," ","-15.7","","-22.8","","54","","26","","26","","24.1","","101.99","","","","-26","","Clear"
"2009-01-01 15:00","2009","01","01","15:00"," ","-15.2","","-23.4","","50","","26","","24","","48.3","","101.94","","","","-25","","Mainly Clear"
"2009-01-01 16:00","2009","01","01","16:00"," ","-15.0","","-23.0","","50","","26","","24","","48.3","","101.96","","","","-25","","Clear"
"2009-01-01 17:00","2009","01","01","17:00"," ","-15.0","","-22.8","","51","","26","","22","","48.3","","101.99","","","","-25","","Clear"
"2009-01-01 18:00","2009","01","01","18:00"," ","-14.9","","-22.9","","50","","26","","15","","25.0","","102.02","","","","-23","","Clear"
"2009-01-01 19:00","2009","01","01","19:00"," ","-14.9","","-22.3","","53","","25","","11","","25.0","","101.97","","","","-21","","Clear"
"2009-01-01 20:00","2009","01","01","20:00"," ","-15.9","","-22.8","","55","","27","","11","","25.0","","101.93","","","","-23","","Clear"
"2009-01-01 21:00","2009","01","01","21:00"," ","-16.5","","-23.0","","57","","27","","7","","25.0","","101.84","","","","-22","","Clear"
"2009-01-01 22:00","2009","01","01","22:00"," ","-16.7","","-23.0","","58","","","","0","","25.0","","101.78","","","","","","Mostly Cloudy"
"2009-01-01 23:00","2009","01","01","23:00"," ","-16.2","","-22.1","","60","","13","","4","","25.0","","101.72","","","","-19","","Mostly Cloudy"
"2009-01-02 00:00","2009","01","02","00:00"," ","-16.3","","-22.1","","61","","","","0","","25.0","","101.68","","","","","","Mainly Clear"
"2009-01-02 01:00","2009","01","02","01:00"," ","-15.1","","-20.8","","62","","10","","4","","25.0","","101.61","","","","-18","","Mostly Cloudy"
"2009-01-02 02:00","2009","01","02","02:00"," ","-14.4","","-18.9","","69","","10","","7","","25.0","","101.55","","","","-19","","Mostly Cloudy"
"2009-01-02 03:00","2009","01","02","03:00"," ","-14.3","","-19.4","","65","","11","","9","","25.0","","101.43","","","","-20","","Mostly Cloudy"
"2009-01-02 04:00","2009","01","02","04:00"," ","-13.7","","-18.2","","69","","8","","15","","25.0","","101.28","","","","-21","","Mainly Clear"
"2009-01-02 05:00","2009","01","02","05:00"," ","-13.9","","-17.5","","74","","8","","13","","25.0","","101.15","","","","-21","","Clear"
"2009-01-02 06:00","2009","01","02","06:00"," ","-14.0","","-18.8","","67","","7","","19","","25.0","","101.02","","","","-23","","Mostly Cloudy"
"2009-01-02 07:00","2009","01","02","07:00"," ","-13.4","","-19.4","","61","","6","","15","","25.0","","100.92","","","","-21","","Mostly Cloudy"
"2009-01-02 08:00","2009","01","02","08:00"," ","-15.7","","-20.3","","68","","3","","19","","48.3","","100.86","","","","-25","","Cloudy"
"2009-01-02 09:00","2009","01","02","09:00"," ","-15.6","","-19.5","","72","","2","","20","","48.3","","100.74","","","","-25","","Cloudy"
"2009-01-02 10:00","2009","01","02","10:00"," ","-14.9","","-19.2","","70","","2","","19","","24.1","","100.66","","","","-24","","Cloudy"
"2009-01-02 11:00","2009","01","02","11:00"," ","-14.7","","-19.2","","69","","1","","17","","24.1","","100.55","","","","-23","","Cloudy"
"2009-01-02 12:00","2009","01","02","12:00"," ","-14.5","","-19.0","","69","","1","","20","","2.8","","100.45","","","","-24","","Snow"
"2009-01-02 13:00","2009","01","02","13:00"," ","-14.4","","-18.4","","72","","3","","22","","2.8","","100.34","","","","-24","","Snow"
"2009-01-02 14:00","2009","01","02","14:00"," ","-14.0","","-17.7","","74","","4","","17","","2.4","","100.25","","","","-22","","Snow"
"2009-01-02 15:00","2009","01","02","15:00"," ","-13.9","","-17.2","","76","","2","","17","","4.8","","100.23","","","","-22","","Snow"
"2009-01-02 16:00","2009","01","02","16:00"," ","-13.4","","-16.3","","79","","3","","15","","4.0","","100.18","","","","-21","","Snow"
"2009-01-02 17:00","2009","01","02","17:00"," ","-13.2","","-16.1","","79","","2","","13","","4.8","","100.19","","","","-20","","Snow"
"2009-01-02 18:00","2009","01","02","18:00"," ","-13.1","","-16.0","","79","","1","","11","","6.4","","100.16","","","","-19","","Snow"
"2009-01-02 19:00","2009","01","02","19:00"," ","-13.0","","-15.8","","79","","36","","13","","12.9","","100.16","","","","-20","","Snow"
"2009-01-02 20:00","2009","01","02","20:00"," ","-12.6","","-15.4","","80","","2","","13","","16.1","","100.17","","","","-19","","Cloudy"
"2009-01-02 21:00","2009","01","02","21:00"," ","-12.3","","-14.9","","81","","2","","11","","16.1","","100.15","","","","-18","","Cloudy"
"2009-01-02 22:00","2009","01","02","22:00"," ","-12.0","","-14.7","","80","","32","","6","","16.1","","100.15","","","","-16","","Snow"
"2009-01-02 23:00","2009","01","02","23:00"," ","-11.8","","-14.8","","78","","28","","4","","19.3","","100.17","","","","-14","","Cloudy"
"2009-01-03 00:00","2009","01","03","00:00"," ","-11.6","","-14.5","","79","","29","","6","","25.0","","100.17","","","","-15","","Cloudy"
"2009-01-03 01:00","2009","01","03","01:00"," ","-11.5","","-14.3","","80","","24","","6","","25.0","","100.20","","","","-15","","Cloudy"
"2009-01-03 02:00","2009","01","03","02:00"," ","-12.4","","-14.7","","83","","23","","11","","25.0","","100.24","","","","-18","","Mainly Clear"
"2009-01-03 03:00","2009","01","03","03:00"," ","-11.9","","-14.1","","84","","24","","22","","25.0","","100.26","","","","-21","","Mostly Cloudy"
"2009-01-03 04:00","2009","01","03","04:00"," ","-12.2","","-14.5","","83","","25","","19","","25.0","","100.34","","","","-20","","Cloudy"
"2009-01-03 05:00","2009","01","03","05:00"," ","-11.2","","-14.1","","79","","27","","24","","25.0","","100.44","","","","-20","","Mostly Cloudy"
"2009-01-03 06:00","2009","01","03","06:00"," ","-11.2","","-14.4","","77","","26","","20","","25.0","","100.53","","","","-19","","Mostly Cloudy"
"2009-01-03 07:00","2009","01","03","07:00"," ","-12.0","","-15.1","","78","","26","","19","","25.0","","100.69","","","","-20","","Mainly Clear"
"2009-01-03 08:00","2009","01","03","08:00"," ","-11.9","","-15.3","","76","","25","","24","","48.3","","100.76","","","","-21","","Mostly Cloudy"
"2009-01-03 09:00","2009","01","03","09:00"," ","-12.1","","-15.5","","76","","25","","22","","48.3","","100.85","","","","-21","","Mostly Cloudy"
"2009-01-03 10:00","2009","01","03","10:00"," ","-11.3","","-15.5","","71","","26","","28","","48.3","","100.91","","","","-21","","Mainly Clear"
"2009-01-03 11:00","2009","01","03","11:00"," ","-10.8","","-15.8","","67","","26","","37","","48.3","","100.89","","","","-21","","Clear"
"2009-01-03 12:00","2009","01","03","12:00"," ","-10.3","","-15.4","","66","","26","","35","","48.3","","100.86","","","","-21","","Clear"
"2009-01-03 13:00","2009","01","03","13:00"," ","-9.8","","-15.1","","65","","26","","33","","48.3","","100.83","","","","-20","","Clear"
"2009-01-03 14:00","2009","01","03","14:00"," ","-9.3","","-14.9","","64","","27","","43","","48.3","","100.83","","","","-20","","Clear"
"2009-01-03 15:00","2009","01","03","15:00"," ","-8.9","","-15.5","","59","","27","","32","","48.3","","100.89","","","","-18","","Mainly Clear"
"2009-01-03 16:00","2009","01","03","16:00"," ","-8.5","","-15.4","","57","","27","","28","","24.1","","100.96","","","","-17","","Mostly Cloudy"
"2009-01-03 17:00","2009","01","03","17:00"," ","-8.4","","-15.0","","59","","27","","24","","25.0","","101.02","","","","-17","","Mostly Cloudy"
"2009-01-03 18:00","2009","01","03","18:00"," ","-8.3","","-15.1","","58","","30","","24","","25.0","","101.13","","","","-16","","Mostly Cloudy"
"2009-01-03 19:00","2009","01","03","19:00"," ","-9.5","","-16.0","","59","","30","","20","","25.0","","101.21","","","","-17","","Mostly Cloudy"
"2009-01-03 20:00","2009","01","03","20:00"," ","-10.2","","-16.7","","59","","30","","24","","25.0","","101.31","","","","-19","","Mostly Cloudy"
"2009-01-03 21:00","2009","01","03","21:00"," ","-10.7","","-16.6","","62","","29","","30","","25.0","","101.41","","","","-20","","Mostly Cloudy"
"2009-01-03 22:00","2009","01","03","22:00"," ","-11.2","","-17.1","","62","","28","","24","","25.0","","101.45","","","","-20","","Mostly Cloudy"
"2009-01-03 23:00","2009","01","03","23:00"," ","-12.2","","-17.7","","64","","27","","20","","25.0","","101.45","","","","-21","","Mainly Clear"
"2009-01-04 00:00","2009","01","04","00:00"," ","-12.7","","-17.9","","65","","27","","17","","25.0","","101.47","","","","-21","","Clear"
"2009-01-04 01:00","2009","01","04","01:00"," ","-13.0","","-18.2","","65","","28","","17","","25.0","","101.46","","","","-21","","Clear"
"2009-01-04 02:00","2009","01","04","02:00"," ","-12.9","","-17.6","","68","","27","","20","","25.0","","101.51","","","","-22","","Clear"
"2009-01-04 03:00","2009","01","04","03:00"," ","-13.0","","-17.6","","68","","27","","17","","25.0","","101.53","","","","-21","","Clear"
"2009-01-04 04:00","2009","01","04","04:00"," ","-13.4","","-17.8","","69","","27","","17","","25.0","","101.55","","","","-21","","Clear"
"2009-01-04 05:00","2009","01","04","05:00"," ","-13.4","","-17.9","","69","","27","","15","","25.0","","101.61","","","","-21","","Clear"
"2009-01-04 06:00","2009","01","04","06:00"," ","-13.9","","-18.0","","71","","25","","15","","25.0","","101.61","","","","-22","","Mostly Cloudy"
"2009-01-04 07:00","2009","01","04","07:00"," ","-13.4","","-17.4","","72","","25","","19","","25.0","","101.65","","","","-22","","Mostly Cloudy"
"2009-01-04 08:00","2009","01","04","08:00"," ","-13.5","","-17.2","","74","","25","","17","","48.3","","101.66","","","","-22","","Mostly Cloudy"
"2009-01-04 09:00","2009","01","04","09:00"," ","-13.4","","-17.1","","74","","26","","19","","48.3","","101.66","","","","-22","","Mostly Cloudy"
"2009-01-04 10:00","2009","01","04","10:00"," ","-13.0","","-16.9","","72","","25","","19","","24.1","","101.73","","","","-21","","Snow Showers"
"2009-01-04 11:00","2009","01","04","11:00"," ","-12.3","","-16.4","","71","","27","","19","","19.3","","101.69","","","","-21","","Snow Showers"
"2009-01-04 12:00","2009","01","04","12:00"," ","-11.8","","-16.0","","71","","25","","15","","24.1","","101.58","","","","-19","","Mostly Cloudy"
"2009-01-04 13:00","2009","01","04","13:00"," ","-10.9","","-15.6","","68","","27","","13","","24.1","","101.54","","","","-17","","Snow"
"2009-01-04 14:00","2009","01","04","14:00"," ","-10.4","","-15.3","","67","","27","","19","","24.1","","101.50","","","","-18","","Mostly Cloudy"
"2009-01-04 15:00","2009","01","04","15:00"," ","-10.1","","-15.3","","66","","27","","15","","24.1","","101.54","","","","-17","","Mostly Cloudy"
"2009-01-04 16:00","2009","01","04","16:00"," ","-10.3","","-15.9","","63","","25","","7","","25.0","","101.53","","","","-14","","Mostly Cloudy"
"2009-01-04 17:00","2009","01","04","17:00"," ","-10.4","","-16.1","","63","","23","","11","","25.0","","101.47","","","","-16","","Cloudy"
"2009-01-04 18:00","2009","01","04","18:00"," ","-11.1","","-15.8","","68","","27","","4","","25.0","","101.46","","","","-14","","Mostly Cloudy"
"2009-01-04 19:00","2009","01","04","19:00"," ","-9.8","","-14.8","","67","","24","","9","","25.0","","101.41","","","","-15","","Mostly Cloudy"
"2009-01-04 20:00","2009","01","04","20:00"," ","-9.6","","-13.6","","73","","18","","6","","25.0","","101.32","","","","-13","","Cloudy"
"2009-01-04 21:00","2009","01","04","21:00"," ","-9.0","","-14.0","","67","","21","","7","","25.0","","101.24","","","","-13","","Cloudy"
"2009-01-04 22:00","2009","01","04","22:00"," ","-9.1","","-14.1","","67","","12","","7","","25.0","","101.03","","","","-13","","Snow"
"2009-01-04 23:00","2009","01","04","23:00"," ","-8.9","","-13.7","","68","","9","","7","","19.3","","100.95","","","","-13","","Snow"
"2009-01-05 00:00","2009","01","05","00:00"," ","-8.6","","-13.1","","70","","","","0","","19.3","","100.88","","","","","","Snow"
"2009-01-05 01:00","2009","01","05","01:00"," ","-9.0","","-12.0","","79","","2","","11","","25.0","","100.84","","","","-14","","Cloudy"
"2009-01-05 02:00","2009","01","05","02:00"," ","-9.2","","-11.6","","83","","1","","7","","25.0","","100.79","","","","-13","","Cloudy"
"2009-01-05 03:00","2009","01","05","03:00"," ","-8.9","","-11.2","","83","","28","","6","","25.0","","100.80","","","","-12","","Cloudy"
"2009-01-05 04:00","2009","01","05","04:00"," ","-8.9","","-11.3","","83","","27","","9","","25.0","","100.73","","","","-14","","Cloudy"
"2009-01-05 05:00","2009","01","05","05:00"," ","-8.7","","-11.4","","81","","25","","15","","25.0","","100.72","","","","-15","","Cloudy"
"2009-01-05 06:00","2009","01","05","06:00"," ","-8.4","","-11.7","","77","","23","","20","","25.0","","100.79","","","","-16","","Cloudy"
"2009-01-05 07:00","2009","01","05","07:00"," ","-8.2","","-10.9","","81","","26","","20","","25.0","","100.80","","","","-16","","Cloudy"
"2009-01-05 08:00","2009","01","05","08:00"," ","-7.6","","-10.1","","82","","25","","19","","24.1","","100.82","","","","-15","","Cloudy"
"2009-01-05 09:00","2009","01","05","09:00"," ","-6.9","","-9.2","","84","","24","","15","","24.1","","100.82","","","","-13","","Snow"
"2009-01-05 10:00","2009","01","05","10:00"," ","-5.6","","-8.1","","83","","25","","17","","24.1","","100.82","","","","-12","","Snow"
"2009-01-05 11:00","2009","01","05","11:00"," ","-4.4","","-7.4","","80","","28","","17","","24.1","","100.75","","","","-10","","Mostly Cloudy"
"2009-01-05 12:00","2009","01","05","12:00"," ","-3.3","","-7.5","","73","","27","","28","","24.1","","100.65","","","","-11","","Mainly Clear"
"2009-01-05 13:00","2009","01","05","13:00"," ","-2.8","","-8.1","","67","","27","","28","","24.1","","100.59","","","","-10","","Mainly Clear"
"2009-01-05 14:00","2009","01","05","14:00"," ","-2.3","","-9.2","","59","","26","","37","","24.1","","100.55","","","","-10","","Mainly Clear"
"2009-01-05 15:00","2009","01","05","15:00"," ","-2.5","","-10.2","","55","","27","","30","","24.1","","100.56","","","","-10","","Mainly Clear"
"2009-01-05 16:00","2009","01","05","16:00"," ","-3.4","","-10.1","","60","","26","","26","","24.1","","100.59","","","","-10","","Mainly Clear"
"2009-01-05 17:00","2009","01","05","17:00"," ","-4.0","","-10.4","","61","","26","","20","","24.1","","100.65","","","","-10","","Mainly Clear"
"2009-01-05 18:00","2009","01","05","18:00"," ","-4.4","","-9.9","","65","","26","","20","","25.0","","100.71","","","","-11","","Mainly Clear"
"2009-01-05 19:00","2009","01","05","19:00"," ","-4.8","","-9.8","","68","","26","","22","","25.0","","100.72","","","","-12","","Mainly Clear"
"2009-01-05 20:00","2009","01","05","20:00"," ","-5.3","","-10.9","","65","","26","","22","","25.0","","100.78","","","","-12","","Mainly Clear"
"2009-01-05 21:00","2009","01","05","21:00"," ","-6.0","","-12.2","","61","","26","","26","","25.0","","100.80","","","","-14","","Mainly Clear"
"2009-01-05 22:00","2009","01","05","22:00"," ","-6.8","","-12.9","","62","","26","","22","","25.0","","100.83","","","","-14","","Mainly Clear"
"2009-01-05 23:00","2009","01","05","23:00"," ","-6.9","","-12.9","","62","","25","","24","","25.0","","100.83","","","","-15","","Clear"
"2009-01-06 00:00","2009","01","06","00:00"," ","-6.9","","-12.3","","65","","25","","24","","25.0","","100.83","","","","-15","","Mostly Cloudy"
"2009-01-06 01:00","2009","01","06","01:00"," ","-6.6","","-11.5","","68","","25","","26","","25.0","","100.87","","","","-15","","Cloudy"
"2009-01-06 02:00","2009","01","06","02:00"," ","-6.4","","-10.9","","70","","25","","24","","25.0","","100.92","","","","-14","","Snow"
"2009-01-06 03:00","2009","01","06","03:00"," ","-6.3","","-10.7","","71","","24","","28","","25.0","","100.97","","","","-14","","Snow"
"2009-01-06 04:00","2009","01","06","04:00"," ","-7.2","","-11.4","","72","","25","","28","","25.0","","100.97","","","","-16","","Clear"
"2009-01-06 05:00","2009","01","06","05:00"," ","-7.7","","-11.7","","73","","25","","22","","25.0","","100.95","","","","-15","","Clear"
"2009-01-06 06:00","2009","01","06","06:00"," ","-8.2","","-12.0","","74","","24","","19","","25.0","","100.99","","","","-15","","Mainly Clear"
"2009-01-06 07:00","2009","01","06","07:00"," ","-7.7","","-11.9","","72","","23","","22","","24.1","","101.02","","","","-15","","Mainly Clear"
"2009-01-06 08:00","2009","01","06","08:00"," ","-8.8","","-12.6","","74","","26","","13","","24.1","","101.07","","","","-15","","Mostly Cloudy"
"2009-01-06 09:00","2009","01","06","09:00"," ","-7.9","","-12.3","","71","","25","","13","","24.1","","101.11","","","","-14","","Mostly Cloudy"
"2009-01-06 10:00","2009","01","06","10:00"," ","-7.4","","-11.4","","73","","25","","7","","24.1","","101.13","","","","-11","","Mainly Clear"
"2009-01-06 11:00","2009","01","06","11:00"," ","-7.0","","-11.1","","73","","27","","9","","24.1","","101.12","","","","-11","","Mainly Clear"
"2009-01-06 12:00","2009","01","06","12:00"," ","-5.7","","-10.3","","70","","26","","15","","24.1","","101.05","","","","-11","","Mainly Clear"
"2009-01-06 13:00","2009","01","06","13:00"," ","-4.6","","-9.8","","67","","25","","17","","24.1","","101.01","","","","-10","","Mainly Clear"
"2009-01-06 14:00","2009","01","06","14:00"," ","-4.0","","-9.9","","63","","23","","17","","24.1","","101.02","","","","-10","","Mainly Clear"
"2009-01-06 15:00","2009","01","06","15:00"," ","-4.2","","-9.9","","64","","23","","13","","24.1","","101.04","","","","-9","","Mainly Clear"
"2009-01-06 16:00","2009","01","06","16:00"," ","-4.3","","-10.3","","63","","23","","13","","24.1","","101.05","","","","-9","","Mainly Clear"
"2009-01-06 17:00","2009","01","06","17:00"," ","-5.9","","-11.7","","64","","21","","6","","25.0","","100.99","","","","-9","","Mainly Clear"
"2009-01-06 18:00","2009","01","06","18:00"," ","-7.2","","-12.2","","67","","27","","4","","25.0","","101.08","","","","-9","","Mainly Clear"
"2009-01-06 19:00","2009","01","06","19:00"," ","-6.0","","-11.0","","68","","3","","9","","25.0","","101.00","","","","-10","","Mainly Clear"
"2009-01-06 20:00","2009","01","06","20:00"," ","-9.9","","-13.5","","75","","","","0","","25.0","","101.04","","","","","","Mainly Clear"
"2009-01-06 21:00","2009","01","06","21:00"," ","-8.6","","-12.0","","76","","5","","4","","25.0","","101.05","","","","-11","","Mainly Clear"
"2009-01-06 22:00","2009","01","06","22:00"," ","-6.8","","-10.4","","75","","12","","9","","25.0","","100.96","","","","-11","","Mostly Cloudy"
"2009-01-06 23:00","2009","01","06","23:00"," ","-6.2","","-10.3","","73","","4","","9","","25.0","","100.94","","","","-10","","Cloudy"
"2009-01-07 00:00","2009","01","07","00:00"," ","-6.8","","-10.5","","75","","5","","19","","25.0","","100.84","","","","-14","","Cloudy"
"2009-01-07 01:00","2009","01","07","01:00"," ","-7.8","","-11.5","","75","","4","","22","","25.0","","100.79","","","","-15","","Cloudy"
"2009-01-07 02:00","2009","01","07","02:00"," ","-8.3","","-12.9","","69","","4","","22","","25.0","","100.79","","","","-16","","Cloudy"
"2009-01-07 03:00","2009","01","07","03:00"," ","-8.5","","-14.4","","62","","5","","26","","25.0","","100.59","","","","-17","","Cloudy"
"2009-01-07 04:00","2009","01","07","04:00"," ","-8.7","","-14.0","","65","","5","","22","","12.9","","100.44","","","","-17","","Snow"
"2009-01-07 05:00","2009","01","07","05:00"," ","-8.8","","-13.2","","70","","4","","24","","4.8","","100.36","","","","-17","","Snow"
"2009-01-07 06:00","2009","01","07","06:00"," ","-9.9","","-12.6","","81","","4","","33","","3.6","","100.21","","","","-20","","Snow"
"2009-01-07 07:00","2009","01","07","07:00"," ","-10.1","","-12.7","","81","","4","","33","","4.8","","100.05","","","","-20","","Snow"
"2009-01-07 08:00","2009","01","07","08:00"," ","-10.0","","-12.7","","81","","5","","35","","4.8","","99.84","","","","-20","","Snow"
"2009-01-07 09:00","2009","01","07","09:00"," ","-9.8","","-12.2","","83","","4","","33","","4.0","","99.73","","","","-20","","Snow"
"2009-01-07 10:00","2009","01","07","10:00"," ","-9.6","","-11.8","","84","","4","","39","","1.2","","99.57","","","","-20","","Snow"
"2009-01-07 11:00","2009","01","07","11:00"," ","-9.6","","-11.7","","85","","4","","39","","1.0","","99.33","","","","-20","","Snow,Blowing Snow"
"2009-01-07 12:00","2009","01","07","12:00"," ","-9.7","","-11.7","","85","","4","","39","","0.6","","99.02","","","","-20","","Moderate Snow,Blowing Snow"
"2009-01-07 13:00","2009","01","07","13:00"," ","-9.2","","-11.2","","85","","5","","37","","1.0","","98.89","","","","-19","","Snow,Blowing Snow"
"2009-01-07 14:00","2009","01","07","14:00"," ","-8.9","","-10.9","","85","","4","","41","","1.0","","98.59","","","","-19","","Snow,Blowing Snow"
"2009-01-07 15:00","2009","01","07","15:00"," ","-8.3","","-10.5","","84","","4","","37","","1.6","","98.44","","","","-18","","Snow,Blowing Snow"
"2009-01-07 16:00","2009","01","07","16:00"," ","-7.9","","-10.0","","85","","4","","37","","2.4","","98.31","","","","-18","","Snow"
"2009-01-07 17:00","2009","01","07","17:00"," ","-7.8","","-9.7","","86","","4","","30","","1.6","","98.23","","","","-17","","Snow"
"2009-01-07 18:00","2009","01","07","18:00"," ","-7.9","","-9.6","","88","","3","","28","","1.2","","98.16","","","","-17","","Snow"
"2009-01-07 19:00","2009","01","07","19:00"," ","-8.0","","-9.7","","88","","3","","28","","1.6","","98.13","","","","-17","","Snow"
"2009-01-07 20:00","2009","01","07","20:00"," ","-8.1","","-9.8","","88","","2","","30","","1.6","","98.00","","","","-17","","Snow"
"2009-01-07 21:00","2009","01","07","21:00"," ","-8.5","","-10.4","","86","","36","","19","","4.8","","97.94","","","","-16","","Snow"
"2009-01-07 22:00","2009","01","07","22:00"," ","-8.7","","-10.7","","85","","2","","20","","4.8","","97.88","","","","-16","","Snow"
"2009-01-07 23:00","2009","01","07","23:00"," ","-8.7","","-10.8","","85","","1","","15","","6.4","","97.83","","","","-15","","Snow"
"2009-01-08 00:00","2009","01","08","00:00"," ","-8.7","","-10.8","","85","","1","","13","","12.9","","97.76","","","","-15","","Snow"
"2009-01-08 01:00","2009","01","08","01:00"," ","-8.7","","-11.0","","83","","36","","11","","12.9","","97.69","","","","-14","","Cloudy"
"2009-01-08 02:00","2009","01","08","02:00"," ","-8.8","","-10.9","","85","","35","","9","","4.8","","97.72","","","","-13","","Snow"
"2009-01-08 03:00","2009","01","08","03:00"," ","-8.9","","-10.7","","87","","32","","6","","6.4","","97.74","","","","-12","","Snow"
"2009-01-08 04:00","2009","01","08","04:00"," ","-9.0","","-10.7","","87","","30","","7","","6.4","","97.77","","","","-13","","Snow"
"2009-01-08 05:00","2009","01","08","05:00"," ","-9.0","","-10.8","","87","","27","","7","","9.7","","97.83","","","","-13","","Snow"
"2009-01-08 06:00","2009","01","08","06:00"," ","-8.7","","-10.4","","87","","23","","13","","6.4","","97.95","","","","-15","","Snow"
"2009-01-08 07:00","2009","01","08","07:00"," ","-7.9","","-10.1","","84","","24","","26","","6.4","","98.06","","","","-16","","Snow"
"2009-01-08 08:00","2009","01","08","08:00"," ","-8.6","","-10.7","","85","","25","","32","","9.7","","98.16","","","","-18","","Snow"
"2009-01-08 09:00","2009","01","08","09:00"," ","-9.0","","-11.6","","81","","27","","22","","19.3","","98.30","","","","-17","","Snow"
"2009-01-08 10:00","2009","01","08","10:00"," ","-8.8","","-12.4","","75","","26","","28","","19.3","","98.40","","","","-18","","Snow Showers"
"2009-01-08 11:00","2009","01","08","11:00"," ","-8.7","","-12.1","","76","","26","","22","","9.7","","98.45","","","","-17","","Snow"
"2009-01-08 12:00","2009","01","08","12:00"," ","-9.4","","-13.1","","74","","27","","33","","12.9","","98.50","","","","-19","","Snow"
"2009-01-08 13:00","2009","01","08","13:00"," ","-9.5","","-13.1","","75","","27","","32","","24.1","","98.57","","","","-19","","Snow Showers"
"2009-01-08 14:00","2009","01","08","14:00"," ","-9.6","","-14.4","","68","","26","","37","","19.3","","98.69","","","","-20","","Mainly Clear"
"2009-01-08 15:00","2009","01","08","15:00"," ","-9.8","","-14.7","","67","","26","","30","","24.1","","98.86","","","","-19","","Mainly Clear"
"2009-01-08 16:00","2009","01","08","16:00"," ","-9.8","","-15.1","","65","","27","","28","","24.1","","99.06","","","","-19","","Mostly Cloudy"
"2009-01-08 17:00","2009","01","08","17:00"," ","-10.0","","-14.4","","70","","26","","37","","25.0","","99.20","","","","-20","","Mostly Cloudy"
"2009-01-08 18:00","2009","01","08","18:00"," ","-9.9","","-13.8","","73","","25","","26","","25.0","","99.34","","","","-19","","Snow Showers"
"2009-01-08 19:00","2009","01","08","19:00"," ","-10.0","","-13.3","","77","","26","","26","","25.0","","99.44","","","","-19","","Mostly Cloudy"
"2009-01-08 20:00","2009","01","08","20:00"," ","-9.9","","-13.1","","77","","27","","30","","25.0","","99.51","","","","-19","","Mostly Cloudy"
"2009-01-08 21:00","2009","01","08","21:00"," ","-10.1","","-12.8","","81","","28","","17","","25.0","","99.62","","","","-17","","Snow Showers"
"2009-01-08 22:00","2009","01","08","22:00"," ","-10.8","","-16.0","","65","","28","","24","","25.0","","99.72","","","","-20","","Mainly Clear"
"2009-01-08 23:00","2009","01","08","23:00"," ","-12.1","","-16.9","","67","","26","","24","","25.0","","99.84","","","","-21","","Mainly Clear"
"2009-01-09 00:00","2009","01","09","00:00"," ","-13.0","","-17.5","","69","","28","","17","","25.0","","99.91","","","","-21","","Mainly Clear"
"2009-01-09 01:00","2009","01","09","01:00"," ","-13.4","","-18.3","","67","","27","","20","","25.0","","100.01","","","","-22","","Mainly Clear"
"2009-01-09 02:00","2009","01","09","02:00"," ","-13.4","","-18.0","","68","","27","","26","","25.0","","100.14","","","","-23","","Mostly Cloudy"
"2009-01-09 03:00","2009","01","09","03:00"," ","-14.0","","-17.9","","72","","27","","20","","25.0","","100.26","","","","-23","","Mainly Clear"
"2009-01-09 04:00","2009","01","09","04:00"," ","-14.1","","-17.9","","73","","26","","26","","25.0","","100.31","","","","-24","","Mainly Clear"
"2009-01-09 05:00","2009","01","09","05:00"," ","-15.0","","-19.1","","71","","24","","22","","25.0","","100.42","","","","-25","","Mostly Cloudy"
"2009-01-09 06:00","2009","01","09","06:00"," ","-14.9","","-18.6","","73","","25","","19","","19.3","","100.54","","","","-24","","Snow"
"2009-01-09 07:00","2009","01","09","07:00"," ","-15.3","","-18.7","","75","","25","","26","","25.0","","100.64","","","","-26","","Mostly Cloudy"
"2009-01-09 08:00","2009","01","09","08:00"," ","-15.5","","-18.7","","76","","25","","20","","16.1","","100.78","","","","-25","","Snow"
"2009-01-09 09:00","2009","01","09","09:00"," ","-15.5","","-18.4","","78","","26","","24","","12.9","","100.91","","","","-26","","Snow"
"2009-01-09 10:00","2009","01","09","10:00"," ","-14.6","","-17.6","","78","","27","","22","","3.2","","101.00","","","","-24","","Snow"
"2009-01-09 11:00","2009","01","09","11:00"," ","-14.2","","-17.6","","75","","26","","30","","4.0","","101.04","","","","-25","","Snow"
"2009-01-09 12:00","2009","01","09","12:00"," ","-13.7","","-17.4","","74","","25","","26","","4.8","","101.06","","","","-24","","Snow"
"2009-01-09 13:00","2009","01","09","13:00"," ","-13.1","","-17.3","","71","","26","","28","","24.1","","101.06","","","","-23","","Cloudy"
"2009-01-09 14:00","2009","01","09","14:00"," ","-12.5","","-17.3","","67","","27","","30","","24.1","","101.10","","","","-23","","Cloudy"
"2009-01-09 15:00","2009","01","09","15:00"," ","-11.7","","-17.4","","63","","26","","30","","24.1","","101.23","","","","-22","","Cloudy"
"2009-01-09 16:00","2009","01","09","16:00"," ","-11.2","","-17.1","","62","","26","","20","","48.3","","101.35","","","","-19","","Cloudy"
"2009-01-09 17:00","2009","01","09","17:00"," ","-11.9","","-17.5","","63","","25","","19","","24.1","","101.43","","","","-20","","Mostly Cloudy"
"2009-01-09 18:00","2009","01","09","18:00"," ","-12.9","","-18.0","","66","","26","","20","","25.0","","101.51","","","","-22","","Mostly Cloudy"
"2009-01-09 19:00","2009","01","09","19:00"," ","-13.7","","-18.4","","68","","26","","19","","25.0","","101.63","","","","-22","","Mainly Clear"
"2009-01-09 20:00","2009","01","09","20:00"," ","-14.4","","-19.0","","68","","27","","13","","25.0","","101.69","","","","-22","","Mainly Clear"
"2009-01-09 21:00","2009","01","09","21:00"," ","-15.1","","-21.5","","58","","25","","13","","25.0","","101.80","","","","-22","","Clear"
"2009-01-09 22:00","2009","01","09","22:00"," ","-15.3","","-21.0","","62","","22","","7","","25.0","","101.86","","","","-20","","Mainly Clear"
"2009-01-09 23:00","2009","01","09","23:00"," ","-15.8","","-21.0","","64","","22","","11","","25.0","","101.93","","","","-23","","Mainly Clear"
"2009-01-10 00:00","2009","01","10","00:00"," ","-16.4","","-21.3","","66","","24","","7","","25.0","","101.96","","","","-21","","Mainly Clear"
"2009-01-10 01:00","2009","01","10","01:00"," ","-16.9","","-21.6","","67","","23","","9","","25.0","","102.01","","","","-23","","Clear"
"2009-01-10 02:00","2009","01","10","02:00"," ","-17.4","","-22.1","","67","","23","","13","","25.0","","102.09","","","","-25","","Clear"
"2009-01-10 03:00","2009","01","10","03:00"," ","-19.2","","-23.4","","69","","26","","6","","25.0","","102.13","","","","-24","","Clear"
"2009-01-10 04:00","2009","01","10","04:00"," ","-18.8","","-22.8","","71","","","","0","","25.0","","102.14","","","","","","Clear"
"2009-01-10 05:00","2009","01","10","05:00"," ","-18.8","","-22.8","","71","","23","","7","","25.0","","102.22","","","","-24","","Clear"
"2009-01-10 06:00","2009","01","10","06:00"," ","-19.5","","-23.4","","71","","","","0","","25.0","","102.24","","","","","","Clear"
"2009-01-10 07:00","2009","01","10","07:00"," ","-19.5","","-23.3","","72","","23","","6","","25.0","","102.30","","","","-24","","Clear"
"2009-01-10 08:00","2009","01","10","08:00"," ","-20.0","","-24.0","","70","","24","","6","","25.0","","102.36","","","","-25","","Clear"
"2009-01-10 09:00","2009","01","10","09:00"," ","-18.5","","-22.9","","68","","22","","6","","48.3","","102.39","","","","-23","","Clear"
"2009-01-10 10:00","2009","01","10","10:00"," ","-17.9","","-22.6","","67","","","","0","","48.3","","102.37","","","","","","Clear"
"2009-01-10 11:00","2009","01","10","11:00"," ","-16.4","","-21.8","","63","","26","","6","","48.3","","102.35","","","","-21","","Clear"
"2009-01-10 12:00","2009","01","10","12:00"," ","-14.8","","-20.6","","61","","","","0","","48.3","","102.28","","","","","","Clear"
"2009-01-10 13:00","2009","01","10","13:00"," ","-13.2","","-19.8","","58","","","","0","","48.3","","102.19","","","","","","Mainly Clear"
"2009-01-10 14:00","2009","01","10","14:00"," ","-13.3","","-19.9","","58","","","","0","","48.3","","102.15","","","","","","Mainly Clear"
"2009-01-10 15:00","2009","01","10","15:00"," ","-13.1","","-19.6","","58","","17","","4","","48.3","","102.09","","","","-16","","Mainly Clear"
"2009-01-10 16:00","2009","01","10","16:00"," ","-13.2","","-19.2","","61","","","","0","","48.3","","102.05","","","","","","Mainly Clear"
"2009-01-10 17:00","2009","01","10","17:00"," ","-14.8","","-20.6","","61","","27","","4","","25.0","","102.04","","","","-18","","Mostly Cloudy"
"2009-01-10 18:00","2009","01","10","18:00"," ","-14.4","","-19.5","","65","","8","","4","","25.0","","101.97","","","","-17","","Mostly Cloudy"
"2009-01-10 19:00","2009","01","10","19:00"," ","-13.9","","-19.9","","60","","5","","6","","25.0","","101.88","","","","-18","","Cloudy"
"2009-01-10 20:00","2009","01","10","20:00"," ","-15.8","","-20.9","","65","","2","","4","","25.0","","101.83","","","","-19","","Cloudy"
"2009-01-10 21:00","2009","01","10","21:00"," ","-15.2","","-19.6","","69","","2","","9","","25.0","","101.80","","","","-21","","Cloudy"
"2009-01-10 22:00","2009","01","10","22:00"," ","-15.0","","-18.9","","72","","3","","9","","25.0","","101.71","","","","-21","","Cloudy"
"2009-01-10 23:00","2009","01","10","23:00"," ","-15.2","","-18.8","","74","","2","","17","","19.3","","101.66","","","","-24","","Cloudy"
"2009-01-11 00:00","2009","01","11","00:00"," ","-14.5","","-18.5","","72","","4","","13","","25.0","","101.58","","","","-22","","Cloudy"
"2009-01-11 01:00","2009","01","11","01:00"," ","-14.8","","-18.8","","72","","3","","20","","25.0","","101.37","","","","-24","","Cloudy"
"2009-01-11 02:00","2009","01","11","02:00"," ","-15.1","","-18.9","","73","","3","","22","","25.0","","101.31","","","","-25","","Cloudy"
"2009-01-11 03:00","2009","01","11","03:00"," ","-15.1","","-19.0","","72","","2","","20","","25.0","","101.28","","","","-24","","Cloudy"
"2009-01-11 04:00","2009","01","11","04:00"," ","-15.4","","-19.2","","73","","2","","19","","25.0","","101.24","","","","-24","","Cloudy"
"2009-01-11 05:00","2009","01","11","05:00"," ","-15.2","","-18.9","","73","","3","","19","","25.0","","101.18","","","","-24","","Cloudy"
"2009-01-11 06:00","2009","01","11","06:00"," ","-16.1","","-19.8","","73","","3","","19","","25.0","","101.19","","","","-25","","Cloudy"
"2009-01-11 07:00","2009","01","11","07:00"," ","-15.3","","-19.3","","71","","2","","13","","25.0","","101.17","","","","-23","","Cloudy"
"2009-01-11 08:00","2009","01","11","08:00"," ","-15.2","","-19.5","","70","","2","","15","","24.1","","101.23","","","","-23","","Cloudy"
"2009-01-11 09:00","2009","01","11","09:00"," ","-14.8","","-19.4","","68","","1","","15","","48.3","","101.28","","","","-23","","Mostly Cloudy"
"2009-01-11 10:00","2009","01","11","10:00"," ","-14.1","","-19.2","","65","","2","","13","","48.3","","101.37","","","","-21","","Mostly Cloudy"
"2009-01-11 11:00","2009","01","11","11:00"," ","-13.1","","-18.4","","64","","1","","15","","48.3","","101.34","","","","-21","","Mainly Clear"
"2009-01-11 12:00","2009","01","11","12:00"," ","-11.6","","-17.5","","62","","1","","9","","48.3","","101.31","","","","-17","","Clear"
"2009-01-11 13:00","2009","01","11","13:00"," ","-10.7","","-17.2","","59","","","","0","","48.3","","101.28","","","","","","Clear"
"2009-01-11 14:00","2009","01","11","14:00"," ","-9.7","","-16.4","","58","","22","","11","","48.3","","101.28","","","","-15","","Clear"
"2009-01-11 15:00","2009","01","11","15:00"," ","-10.0","","-16.8","","57","","21","","11","","48.3","","101.28","","","","-16","","Clear"
"2009-01-11 16:00","2009","01","11","16:00"," ","-10.5","","-17.2","","58","","21","","15","","48.3","","101.29","","","","-17","","Clear"
"2009-01-11 17:00","2009","01","11","17:00"," ","-11.2","","-16.9","","63","","22","","9","","48.3","","101.28","","","","-16","","Mainly Clear"
"2009-01-11 18:00","2009","01","11","18:00"," ","-11.6","","-18.0","","59","","24","","7","","25.0","","101.30","","","","-16","","Clear"
"2009-01-11 19:00","2009","01","11","19:00"," ","-11.2","","-17.5","","60","","22","","7","","25.0","","101.28","","","","-15","","Mostly Cloudy"
"2009-01-11 20:00","2009","01","11","20:00"," ","-11.2","","-17.5","","60","","22","","11","","25.0","","101.31","","","","-17","","Cloudy"
"2009-01-11 21:00","2009","01","11","21:00"," ","-11.6","","-17.5","","62","","22","","11","","25.0","","101.32","","","","-18","","Cloudy"
"2009-01-11 22:00","2009","01","11","22:00"," ","-12.1","","-17.8","","62","","21","","7","","25.0","","101.34","","","","-16","","Cloudy"
"2009-01-11 23:00","2009","01","11","23:00"," ","-12.3","","-17.4","","66","","21","","7","","25.0","","101.30","","","","-17","","Cloudy"
"2009-01-12 00:00","2009","01","12","00:00"," ","-12.7","","-17.7","","66","","23","","9","","25.0","","101.30","","","","-18","","Mostly Cloudy"
"2009-01-12 01:00","2009","01","12","01:00"," ","-12.3","","-16.6","","70","","22","","13","","25.0","","101.29","","","","-19","","Cloudy"
"2009-01-12 02:00","2009","01","12","02:00"," ","-12.5","","-16.6","","71","","24","","9","","25.0","","101.32","","","","-18","","Cloudy"
"2009-01-12 03:00","2009","01","12","03:00"," ","-12.2","","-16.5","","70","","22","","6","","25.0","","101.29","","","","-16","","Cloudy"
"2009-01-12 04:00","2009","01","12","04:00"," ","-12.0","","-16.2","","71","","24","","6","","25.0","","101.28","","","","-16","","Cloudy"
"2009-01-12 05:00","2009","01","12","05:00"," ","-13.2","","-17.3","","71","","26","","7","","25.0","","101.28","","","","-18","","Cloudy"
"2009-01-12 06:00","2009","01","12","06:00"," ","-12.5","","-15.8","","76","","24","","9","","25.0","","101.32","","","","-18","","Mostly Cloudy"
"2009-01-12 07:00","2009","01","12","07:00"," ","-11.9","","-14.7","","80","","26","","13","","25.0","","101.40","","","","-19","","Cloudy"
"2009-01-12 08:00","2009","01","12","08:00"," ","-11.3","","-14.0","","80","","24","","11","","19.3","","101.45","","","","-17","","Snow"
"2009-01-12 09:00","2009","01","12","09:00"," ","-10.8","","-13.2","","82","","25","","13","","24.1","","101.52","","","","-17","","Snow"
"2009-01-12 10:00","2009","01","12","10:00"," ","-10.0","","-12.6","","81","","24","","15","","24.1","","101.60","","","","-17","","Snow"
"2009-01-12 11:00","2009","01","12","11:00"," ","-9.4","","-12.5","","78","","24","","19","","24.1","","101.60","","","","-17","","Mostly Cloudy"
"2009-01-12 12:00","2009","01","12","12:00"," ","-8.3","","-12.0","","75","","21","","17","","48.3","","101.58","","","","-15","","Clear"
"2009-01-12 13:00","2009","01","12","13:00"," ","-7.0","","-11.5","","70","","21","","15","","48.3","","101.53","","","","-13","","Mainly Clear"
"2009-01-12 14:00","2009","01","12","14:00"," ","-6.2","","-11.3","","67","","20","","13","","48.3","","101.51","","","","-12","","Clear"
"2009-01-12 15:00","2009","01","12","15:00"," ","-5.4","","-10.9","","65","","23","","17","","48.3","","101.57","","","","-11","","Clear"
"2009-01-12 16:00","2009","01","12","16:00"," ","-5.4","","-11.2","","64","","23","","9","","48.3","","101.61","","","","-9","","Clear"
"2009-01-12 17:00","2009","01","12","17:00"," ","-7.1","","-11.5","","71","","21","","7","","48.3","","101.66","","","","-11","","Mostly Cloudy"
"2009-01-12 18:00","2009","01","12","18:00"," ","-6.5","","-10.1","","76","","18","","7","","25.0","","101.69","","","","-10","","Cloudy"
"2009-01-12 19:00","2009","01","12","19:00"," ","-7.4","","-11.0","","75","","16","","9","","25.0","","101.68","","","","-12","","Mostly Cloudy"
"2009-01-12 20:00","2009","01","12","20:00"," ","-6.6","","-10.5","","74","","18","","13","","25.0","","101.64","","","","-12","","Cloudy"
"2009-01-12 21:00","2009","01","12","21:00"," ","-5.3","","-9.0","","75","","20","","13","","25.0","","101.65","","","","-10","","Cloudy"
"2009-01-12 22:00","2009","01","12","22:00"," ","-4.3","","-7.9","","76","","21","","17","","25.0","","101.67","","","","-10","","Cloudy"
"2009-01-12 23:00","2009","01","12","23:00"," ","-4.2","","-7.7","","77","","22","","13","","25.0","","101.70","","","","-9","","Cloudy"
"2009-01-13 00:00","2009","01","13","00:00"," ","-7.2","","-9.6","","83","","16","","9","","25.0","","101.65","","","","-12","","Snow Showers"
"2009-01-13 01:00","2009","01","13","01:00"," ","-5.8","","-8.1","","84","","17","","15","","25.0","","101.63","","","","-12","","Snow"
"2009-01-13 02:00","2009","01","13","02:00"," ","-5.3","","-8.3","","79","","17","","15","","25.0","","101.59","","","","-11","","Cloudy"
"2009-01-13 03:00","2009","01","13","03:00"," ","-5.4","","-8.7","","78","","17","","17","","25.0","","101.54","","","","-11","","Cloudy"
"2009-01-13 04:00","2009","01","13","04:00"," ","-5.1","","-8.6","","76","","16","","15","","25.0","","101.51","","","","-11","","Snow"
"2009-01-13 05:00","2009","01","13","05:00"," ","-5.7","","-9.3","","76","","15","","17","","25.0","","101.40","","","","-12","","Mainly Clear"
"2009-01-13 06:00","2009","01","13","06:00"," ","-5.9","","-9.6","","75","","16","","20","","25.0","","101.34","","","","-13","","Mostly Cloudy"
"2009-01-13 07:00","2009","01","13","07:00"," ","-5.8","","-8.9","","79","","15","","24","","25.0","","101.27","","","","-13","","Snow"
"2009-01-13 08:00","2009","01","13","08:00"," ","-5.8","","-8.9","","79","","14","","19","","24.1","","101.15","","","","-12","","Cloudy"
"2009-01-13 09:00","2009","01","13","09:00"," ","-5.1","","-9.1","","73","","15","","19","","19.3","","101.02","","","","-12","","Snow"
"2009-01-13 10:00","2009","01","13","10:00"," ","-4.7","","-8.7","","74","","16","","20","","24.1","","100.88","","","","-11","","Snow"
"2009-01-13 11:00","2009","01","13","11:00"," ","-4.0","","-8.5","","71","","15","","26","","24.1","","100.71","","","","-11","","Cloudy"
"2009-01-13 12:00","2009","01","13","12:00"," ","-3.6","","-7.9","","72","","16","","28","","24.1","","100.50","","","","-11","","Cloudy"
"2009-01-13 13:00","2009","01","13","13:00"," ","-3.2","","-7.6","","72","","15","","32","","24.1","","100.28","","","","-11","","Snow"
"2009-01-13 14:00","2009","01","13","14:00"," ","-2.5","","-7.0","","71","","16","","26","","19.3","","100.11","","","","-9","","Cloudy"
"2009-01-13 15:00","2009","01","13","15:00"," ","-3.1","","-5.1","","86","","16","","24","","1.6","","100.05","","","","-10","","Snow"
"2009-01-13 16:00","2009","01","13","16:00"," ","-2.7","","-4.3","","89","","16","","28","","2.0","","99.95","","","","-10","","Snow"
"2009-01-13 17:00","2009","01","13","17:00"," ","-2.0","","-3.6","","89","","16","","19","","6.4","","99.86","","","","-8","","Snow"
"2009-01-13 18:00","2009","01","13","18:00"," ","-1.1","","-3.6","","83","","16","","20","","9.7","","99.78","","","","-7","","Snow"
"2009-01-13 19:00","2009","01","13","19:00"," ","-1.2","","-4.1","","81","","15","","17","","16.1","","99.70","","","","-6","","Cloudy"
"2009-01-13 20:00","2009","01","13","20:00"," ","-0.5","","-4.1","","77","","16","","17","","25.0","","99.65","","","","-5","","Cloudy"
"2009-01-13 21:00","2009","01","13","21:00"," ","1.1","","-2.5","","77","","20","","24","","25.0","","99.61","","","","","","Snow"
"2009-01-13 22:00","2009","01","13","22:00"," ","-2.6","","-3.5","","94","","27","","44","","3.2","","99.76","","","","-11","","Snow,Blowing Snow"
"2009-01-13 23:00","2009","01","13","23:00"," ","-8.3","","-11.6","","77","","27","","41","","12.9","","99.99","","","","-19","","Mainly Clear"
"2009-01-14 00:00","2009","01","14","00:00"," ","-13.2","","-16.4","","77","","26","","41","","4.8","","100.25","","","","-25","","Blowing Snow"
"2009-01-14 01:00","2009","01","14","01:00"," ","-15.9","","-19.7","","73","","26","","44","","9.7","","100.45","","","","-29","","Blowing Snow"
"2009-01-14 02:00","2009","01","14","02:00"," ","-17.7","","-21.5","","72","","26","","35","","16.1","","100.64","","","","-30","","Mainly Clear"
"2009-01-14 03:00","2009","01","14","03:00"," ","-18.8","","-26.8","","49","","26","","32","","25.0","","100.76","","","","-31","","Clear"
"2009-01-14 04:00","2009","01","14","04:00"," ","-19.6","","-26.8","","53","","26","","26","","25.0","","100.88","","","","-31","","Clear"
"2009-01-14 05:00","2009","01","14","05:00"," ","-20.3","","-27.5","","53","","26","","28","","25.0","","101.03","","","","-33","","Clear"
"2009-01-14 06:00","2009","01","14","06:00"," ","-21.0","","-27.8","","54","","26","","30","","25.0","","101.17","","","","-34","","Clear"
"2009-01-14 07:00","2009","01","14","07:00"," ","-22.0","","-28.4","","56","","26","","32","","48.3","","101.30","","","","-36","","Clear"
"2009-01-14 08:00","2009","01","14","08:00"," ","-22.8","","-28.8","","58","","26","","26","","48.3","","101.45","","","","-35","","Clear"
"2009-01-14 09:00","2009","01","14","09:00"," ","-23.1","","-29.2","","57","","26","","22","","24.1","","101.56","","","","-35","","Clear"
"2009-01-14 10:00","2009","01","14","10:00"," ","-23.0","","-29.1","","57","","27","","28","","24.1","","101.65","","","","-36","","Clear"
"2009-01-14 11:00","2009","01","14","11:00"," ","-23.0","","-29.1","","57","","26","","26","","24.1","","101.68","","","","-36","","Clear"
"2009-01-14 12:00","2009","01","14","12:00"," ","-22.5","","-28.8","","56","","26","","17","","24.1","","101.59","","","","-33","","Clear"
"2009-01-14 13:00","2009","01","14","13:00"," ","-22.0","","-28.2","","57","","26","","20","","24.1","","101.55","","","","-33","","Clear"
"2009-01-14 14:00","2009","01","14","14:00"," ","-21.6","","-28.2","","55","","26","","26","","24.1","","101.61","","","","-34","","Mainly Clear"
"2009-01-14 15:00","2009","01","14","15:00"," ","-21.4","","-28.0","","55","","25","","24","","24.1","","101.71","","","","-33","","Mainly Clear"
"2009-01-14 16:00","2009","01","14","16:00"," ","-21.7","","-28.1","","56","","25","","24","","24.1","","101.79","","","","-34","","Mostly Cloudy"
"2009-01-14 17:00","2009","01","14","17:00"," ","-22.0","","-28.9","","54","","26","","13","","24.1","","101.76","","","","-31","","Mostly Cloudy"
"2009-01-14 18:00","2009","01","14","18:00"," ","-22.3","","-29.1","","54","","26","","17","","25.0","","101.80","","","","-33","","Mostly Cloudy"
"2009-01-14 19:00","2009","01","14","19:00"," ","-22.3","","-29.0","","54","","27","","19","","25.0","","101.82","","","","-33","","Cloudy"
"2009-01-14 20:00","2009","01","14","20:00"," ","-22.3","","-29.5","","52","","26","","17","","25.0","","101.85","","","","-33","","Cloudy"
"2009-01-14 21:00","2009","01","14","21:00"," ","-22.4","","-29.5","","52","","27","","11","","25.0","","101.87","","","","-31","","Cloudy"
"2009-01-14 22:00","2009","01","14","22:00"," ","-22.2","","-29.3","","52","","26","","7","","25.0","","101.90","","","","-28","","Cloudy"
"2009-01-14 23:00","2009","01","14","23:00"," ","-22.1","","-29.2","","53","","25","","9","","25.0","","101.91","","","","-29","","Cloudy"
"2009-01-15 00:00","2009","01","15","00:00"," ","-22.1","","-29.2","","53","","24","","9","","25.0","","101.96","","","","-29","","Cloudy"
"2009-01-15 01:00","2009","01","15","01:00"," ","-22.5","","-29.1","","55","","27","","7","","25.0","","101.97","","","","-29","","Cloudy"
"2009-01-15 02:00","2009","01","15","02:00"," ","-23.5","","-29.8","","56","","28","","6","","25.0","","101.98","","","","-29","","Mainly Clear"
"2009-01-15 03:00","2009","01","15","03:00"," ","-23.6","","-29.8","","57","","25","","6","","25.0","","101.98","","","","-29","","Mainly Clear"
"2009-01-15 04:00","2009","01","15","04:00"," ","-24.4","","-29.5","","63","","","","0","","25.0","","101.98","","","","","","Mainly Clear"
"2009-01-15 05:00","2009","01","15","05:00"," ","-25.5","","-30.6","","62","","34","","7","","25.0","","102.01","","","","-32","","Mainly Clear"
"2009-01-15 06:00","2009","01","15","06:00"," ","-26.7","","-31.3","","65","","34","","4","","25.0","","102.07","","","","-31","","Mainly Clear"
"2009-01-15 07:00","2009","01","15","07:00"," ","-27.1","","-31.2","","68","","31","","4","","24.1","","102.14","","","","-31","","Mainly Clear"
"2009-01-15 08:00","2009","01","15","08:00"," ","-26.4","","-30.5","","68","","","","0","","24.1","","102.19","","","","","","Mainly Clear"
"2009-01-15 09:00","2009","01","15","09:00"," ","-25.6","","-30.2","","65","","","","0","","24.1","","102.25","","","","","","Mainly Clear"
"2009-01-15 10:00","2009","01","15","10:00"," ","-24.1","","-28.5","","67","","","","0","","24.1","","102.28","","","","","","Clear"
"2009-01-15 11:00","2009","01","15","11:00"," ","-21.9","","-28.1","","57","","","","0","","24.1","","102.29","","","","","","Clear"
"2009-01-15 12:00","2009","01","15","12:00"," ","-21.0","","-27.5","","56","","23","","4","E","24.1","","102.26","","","","-25","","Clear"
"2009-01-15 13:00","2009","01","15","13:00"," ","-20.8","","-28.2","","51","","27","","7","","24.1","","102.22","","","","-27","","Clear"
"2009-01-15 14:00","2009","01","15","14:00"," ","-19.8","","-28.1","","48","","27","","17","","24.1","","102.19","","","","-29","","Clear"
"2009-01-15 15:00","2009","01","15","15:00"," ","-19.3","","-27.8","","47","","26","","19","","24.1","","102.20","","","","-29","","Clear"
"2009-01-15 16:00","2009","01","15","16:00"," ","-19.4","","-28.6","","44","","25","","17","","24.1","","102.24","","","","-29","","Clear"
"2009-01-15 17:00","2009","01","15","17:00"," ","-21.2","","-29.4","","48","","27","","11","","24.1","","102.27","","","","-29","","Clear"
"2009-01-15 18:00","2009","01","15","18:00"," ","-21.2","","-29.2","","49","","26","","11","","25.0","","102.31","","","","-29","","Clear"
"2009-01-15 19:00","2009","01","15","19:00"," ","-21.8","","-29.4","","50","","27","","9","","25.0","","102.36","","","","-29","","Clear"
"2009-01-15 20:00","2009","01","15","20:00"," ","-21.9","","-29.4","","51","","24","","7","","25.0","","102.40","","","","-28","","Clear"
"2009-01-15 21:00","2009","01","15","21:00"," ","-23.1","","-29.8","","54","","28","","4","","25.0","","102.39","","","","-27","","Clear"
"2009-01-15 22:00","2009","01","15","22:00"," ","-24.6","","-30.7","","57","","30","","4","","25.0","","102.37","","","","-29","","Mainly Clear"
"2009-01-15 23:00","2009","01","15","23:00"," ","-22.4","","-28.6","","57","","22","","6","","25.0","","102.35","","","","-28","","Mainly Clear"
"2009-01-16 00:00","2009","01","16","00:00"," ","-22.8","","-29.0","","57","","22","","6","","25.0","","102.33","","","","-28","","Mainly Clear"
"2009-01-16 01:00","2009","01","16","01:00"," ","-23.8","","-29.2","","61","","","","0","","25.0","","102.28","","","","","","Clear"
"2009-01-16 02:00","2009","01","16","02:00"," ","-24.6","","-29.2","","66","","","","0","","25.0","","102.28","","","","","","Clear"
"2009-01-16 03:00","2009","01","16","03:00"," ","-25.9","","-29.9","","69","","","","0","","25.0","","102.30","","","","","","Mainly Clear"
"2009-01-16 04:00","2009","01","16","04:00"," ","-25.8","","-29.9","","68","","33","","6","","25.0","","102.29","","","","-32","","Mainly Clear"
"2009-01-16 05:00","2009","01","16","05:00"," ","-25.7","","-30.1","","67","","25","","6","","25.0","","102.26","","","","-32","","Clear"
"2009-01-16 06:00","2009","01","16","06:00"," ","-25.3","","-29.6","","67","","25","","7","","25.0","","102.39","","","","-32","","Clear"
"2009-01-16 07:00","2009","01","16","07:00"," ","-25.6","","-30.3","","65","","22","","7","","25.0","","102.45","","","","-32","","Clear"
"2009-01-16 08:00","2009","01","16","08:00"," ","-26.2","","-30.6","","66","","21","","11","","25.0","","102.50","","","","-35","","Mainly Clear"
"2009-01-16 09:00","2009","01","16","09:00"," ","-25.9","","-30.5","","65","","23","","7","","48.3","","102.54","","","","-33","","Mainly Clear"
"2009-01-16 10:00","2009","01","16","10:00"," ","-25.2","","-30.3","","62","","","","0","","24.1","","102.60","","","","","","Mostly Cloudy"
"2009-01-16 11:00","2009","01","16","11:00"," ","-23.2","","-28.8","","60","","23","","7","","12.9","","102.60","","","","-29","","Snow"
"2009-01-16 12:00","2009","01","16","12:00"," ","-22.2","","-27.1","","64","","26","","11","","4.8","","102.53","","","","-30","","Snow"
"2009-01-16 13:00","2009","01","16","13:00"," ","-21.4","","-26.8","","62","","28","","11","","9.7","","102.46","","","","-29","","Snow"
"2009-01-16 14:00","2009","01","16","14:00"," ","-21.0","","-26.2","","63","","30","","15","","3.6","","102.43","","","","-30","","Snow"
"2009-01-16 15:00","2009","01","16","15:00"," ","-20.6","","-25.8","","63","","27","","6","","6.4","","102.43","","","","-26","","Snow"
"2009-01-16 16:00","2009","01","16","16:00"," ","-20.2","","-25.7","","61","","21","","15","","24.1","","102.46","","","","-29","","Mainly Clear"
"2009-01-16 17:00","2009","01","16","17:00"," ","-21.4","","-27.5","","58","","23","","9","","24.1","","102.51","","","","-28","","Clear"
"2009-01-16 18:00","2009","01","16","18:00"," ","-21.6","","-26.7","","63","","25","","15","","25.0","","102.57","","","","-31","","Clear"
"2009-01-16 19:00","2009","01","16","19:00"," ","-22.4","","-27.8","","61","","26","","7","","25.0","","102.58","","","","-28","","Mostly Cloudy"
"2009-01-16 20:00","2009","01","16","20:00"," ","-24.1","","-28.7","","66","","30","","6","","25.0","","102.57","","","","-30","","Cloudy"
"2009-01-16 21:00","2009","01","16","21:00"," ","-22.1","","-26.9","","65","","","","0","","25.0","","102.58","","","","","","Cloudy"
"2009-01-16 22:00","2009","01","16","22:00"," ","-22.0","","-26.6","","66","","23","","4","","25.0","","102.58","","","","-26","","Mostly Cloudy"
"2009-01-16 23:00","2009","01","16","23:00"," ","-21.7","","-26.0","","68","","23","","7","","25.0","","102.57","","","","-28","","Cloudy"
"2009-01-17 00:00","2009","01","17","00:00"," ","-23.0","","-27.6","","66","","","","0","","25.0","","102.54","","","","","","Mostly Cloudy"
"2009-01-17 01:00","2009","01","17","01:00"," ","-24.4","","-28.4","","69","","","","0","","25.0","","102.57","","","","","","Mostly Cloudy"
"2009-01-17 02:00","2009","01","17","02:00"," ","-22.7","","-27.5","","65","","","","0","","25.0","","102.53","","","","","","Cloudy"
"2009-01-17 03:00","2009","01","17","03:00"," ","-22.8","","-27.0","","68","","","","0","","25.0","","102.46","","","","","","Cloudy"
"2009-01-17 04:00","2009","01","17","04:00"," ","-22.1","","-26.7","","66","","","","0","","19.3","","102.42","","","","","","Snow"
"2009-01-17 05:00","2009","01","17","05:00"," ","-20.9","","-25.2","","68","","2","","4","","6.4","","102.37","","","","-24","","Snow"
"2009-01-17 06:00","2009","01","17","06:00"," ","-19.5","","-23.5","","71","","7","","4","","12.9","","102.34","","","","-23","","Snow"
"2009-01-17 07:00","2009","01","17","07:00"," ","-18.7","","-22.7","","71","","6","","4","","3.2","","102.32","","","","-22","","Snow"
"2009-01-17 08:00","2009","01","17","08:00"," ","-21.4","","-25.7","","68","","36","","6","","3.2","","102.34","","","","-27","","Snow"
"2009-01-17 09:00","2009","01","17","09:00"," ","-21.7","","-26.0","","68","","36","","6","","8.0","","102.38","","","","-27","","Snow"
"2009-01-17 10:00","2009","01","17","10:00"," ","-22.0","","-26.5","","67","","36","","7","","3.6","","102.40","","","","-28","","Snow"
"2009-01-17 11:00","2009","01","17","11:00"," ","-21.7","","-26.4","","66","","3","","11","","8.0","","102.38","","","","-30","","Snow"
"2009-01-17 12:00","2009","01","17","12:00"," ","-20.0","","-24.6","","67","","2","","7","","4.8","","102.31","","","","-26","","Snow"
"2009-01-17 13:00","2009","01","17","13:00"," ","-17.7","","-22.3","","67","","3","","7","","6.4","","102.27","","","","-23","","Snow"
"2009-01-17 14:00","2009","01","17","14:00"," ","-17.5","","-21.9","","68","","3","","13","","8.0","","102.23","","","","-25","","Snow"
"2009-01-17 15:00","2009","01","17","15:00"," ","-17.2","","-21.7","","68","","2","","11","","9.7","","102.24","","","","-24","","Haze"
"2009-01-17 16:00","2009","01","17","16:00"," ","-16.9","","-21.4","","68","","1","","11","","9.7","","102.26","","","","-24","","Haze"
"2009-01-17 17:00","2009","01","17","17:00"," ","-17.8","","-22.1","","69","","2","","15","","9.7","","102.25","","","","-26","","Haze"
"2009-01-17 18:00","2009","01","17","18:00"," ","-18.5","","-22.6","","70","","2","","13","","9.7","","102.27","","","","-27","","Haze"
"2009-01-17 19:00","2009","01","17","19:00"," ","-17.5","","-21.5","","71","","3","","15","","9.7","","102.25","","","","-26","","Haze"
"2009-01-17 20:00","2009","01","17","20:00"," ","-18.6","","-22.7","","70","","3","","19","","9.7","","102.21","","","","-28","","Haze"
"2009-01-17 21:00","2009","01","17","21:00"," ","-18.8","","-22.9","","70","","3","","19","","9.7","","102.19","","","","-29","","Snow,Haze"
"2009-01-17 22:00","2009","01","17","22:00"," ","-18.6","","-22.7","","70","","3","","20","","9.7","","102.15","","","","-29","","Snow,Haze"
"2009-01-17 23:00","2009","01","17","23:00"," ","-18.7","","-22.8","","70","","3","","24","","9.7","","102.11","","","","-30","","Snow,Haze"
"2009-01-18 00:00","2009","01","18","00:00"," ","-17.9","","-22.0","","70","","4","","24","","9.7","","102.04","","","","-29","","Snow,Haze"
"2009-01-18 01:00","2009","01","18","01:00"," ","-17.4","","-21.4","","71","","5","","22","","9.7","","101.95","","","","-28","","Snow,Haze"
"2009-01-18 02:00","2009","01","18","02:00"," ","-17.3","","-21.4","","70","","4","","28","","9.7","","101.85","","","","-29","","Snow,Haze"
"2009-01-18 03:00","2009","01","18","03:00"," ","-17.0","","-21.1","","70","","4","","28","","9.7","","101.74","","","","-28","","Snow,Haze"
"2009-01-18 04:00","2009","01","18","04:00"," ","-16.6","","-20.9","","69","","4","","26","","9.7","","101.65","","","","-27","","Snow,Haze"
"2009-01-18 05:00","2009","01","18","05:00"," ","-16.0","","-20.2","","70","","3","","22","","4.0","","101.56","","","","-26","","Snow,Haze"
"2009-01-18 06:00","2009","01","18","06:00"," ","-15.5","","-19.1","","74","","4","","19","","1.2","","101.49","","","","-25","","Snow,Haze"
"2009-01-18 07:00","2009","01","18","07:00"," ","-14.6","","-17.9","","76","","4","","19","","1.2","","101.43","","","","-23","","Snow,Haze"
"2009-01-18 08:00","2009","01","18","08:00"," ","-13.8","","-16.7","","79","","4","","19","","1.6","","101.38","","","","-22","","Snow,Haze"
"2009-01-18 09:00","2009","01","18","09:00"," ","-12.3","","-14.9","","81","","4","","11","","6.4","","101.34","","","","-18","","Snow"
"2009-01-18 10:00","2009","01","18","10:00"," ","-11.5","","-13.6","","84","","2","","17","","2.4","","101.26","","","","-19","","Snow"
"2009-01-18 11:00","2009","01","18","11:00"," ","-10.6","","-12.7","","85","","4","","19","","1.6","","101.18","","","","-18","","Snow"
"2009-01-18 12:00","2009","01","18","12:00"," ","-9.9","","-12.0","","85","","3","","17","","2.4","","100.99","","","","-17","","Snow"
"2009-01-18 13:00","2009","01","18","13:00"," ","-9.0","","-11.3","","83","","2","","17","","9.7","","100.90","","","","-16","","Snow"
"2009-01-18 14:00","2009","01","18","14:00"," ","-9.1","","-11.5","","83","","2","","20","","12.9","","100.81","","","","-17","","Snow"
"2009-01-18 15:00","2009","01","18","15:00"," ","-9.3","","-11.6","","83","","3","","20","","24.1","","100.78","","","","-17","","Snow"
"2009-01-18 16:00","2009","01","18","16:00"," ","-9.9","","-12.3","","83","","3","","24","","19.3","","100.75","","","","-18","","Snow"
"2009-01-18 17:00","2009","01","18","17:00"," ","-10.6","","-13.2","","81","","4","","32","","24.1","","100.72","","","","-21","","Cloudy"
"2009-01-18 18:00","2009","01","18","18:00"," ","-11.2","","-13.9","","80","","3","","32","","25.0","","100.76","","","","-21","","Snow"
"2009-01-18 19:00","2009","01","18","19:00"," ","-11.6","","-14.4","","80","","3","","33","","25.0","","100.72","","","","-22","","Snow"
"2009-01-18 20:00","2009","01","18","20:00"," ","-11.7","","-14.5","","80","","3","","30","","25.0","","100.63","","","","-22","","Snow"
"2009-01-18 21:00","2009","01","18","21:00"," ","-12.2","","-14.9","","80","","2","","24","","25.0","","100.60","","","","-21","","Snow"
"2009-01-18 22:00","2009","01","18","22:00"," ","-12.5","","-15.2","","80","","3","","26","","25.0","","100.57","","","","-22","","Snow"
"2009-01-18 23:00","2009","01","18","23:00"," ","-12.7","","-15.4","","80","","2","","24","","25.0","","100.49","","","","-22","","Cloudy"
"2009-01-19 00:00","2009","01","19","00:00"," ","-12.7","","-15.3","","81","","2","","26","","25.0","","100.45","","","","-22","","Snow"
"2009-01-19 01:00","2009","01","19","01:00"," ","-12.6","","-15.4","","80","","2","","26","","25.0","","100.38","","","","-22","","Snow"
"2009-01-19 02:00","2009","01","19","02:00"," ","-12.3","","-15.3","","78","","3","","28","","16.1","","100.35","","","","-22","","Snow"
"2009-01-19 03:00","2009","01","19","03:00"," ","-12.2","","-14.9","","80","","3","","22","","8.0","","100.27","","","","-21","","Snow"
"2009-01-19 04:00","2009","01","19","04:00"," ","-12.1","","-14.7","","81","","3","","24","","4.8","","100.19","","","","-21","","Snow"
"2009-01-19 05:00","2009","01","19","05:00"," ","-11.9","","-14.7","","80","","4","","19","","4.0","","100.18","","","","-20","","Snow"
"2009-01-19 06:00","2009","01","19","06:00"," ","-11.8","","-14.3","","82","","3","","19","","4.8","","100.18","","","","-20","","Snow"
"2009-01-19 07:00","2009","01","19","07:00"," ","-11.7","","-14.1","","82","","3","","13","","2.8","","100.16","","","","-18","","Snow"
"2009-01-19 08:00","2009","01","19","08:00"," ","-11.6","","-14.0","","82","","3","","17","","2.4","","100.14","","","","-19","","Snow"
"2009-01-19 09:00","2009","01","19","09:00"," ","-11.3","","-13.9","","81","","2","","11","","4.8","","100.14","","","","-17","","Snow"
"2009-01-19 10:00","2009","01","19","10:00"," ","-10.6","","-13.2","","81","","5","","11","","4.8","","100.12","","","","-16","","Snow"
"2009-01-19 11:00","2009","01","19","11:00"," ","-10.1","","-13.1","","79","","5","","9","","6.4","","100.07","","","","-15","","Snow"
"2009-01-19 12:00","2009","01","19","12:00"," ","-9.8","","-12.9","","78","","4","","11","","6.4","","100.02","","","","-15","","Snow"
"2009-01-19 13:00","2009","01","19","13:00"," ","-9.7","","-12.8","","78","","2","","9","","4.8","","99.98","","","","-15","","Snow"
"2009-01-19 14:00","2009","01","19","14:00"," ","-9.5","","-12.8","","77","","3","","7","","9.7","","99.97","","","","-13","","Snow"
"2009-01-19 15:00","2009","01","19","15:00"," ","-9.3","","-12.4","","78","","36","","6","","12.9","","99.99","","","","-13","","Snow"
"2009-01-19 16:00","2009","01","19","16:00"," ","-9.4","","-12.2","","80","","36","","4","","12.9","","100.04","","","","-12","","Snow"
"2009-01-19 17:00","2009","01","19","17:00"," ","-9.6","","-12.4","","80","","34","","6","","12.9","","100.08","","","","-13","","Snow"
"2009-01-19 18:00","2009","01","19","18:00"," ","-9.5","","-12.3","","80","","36","","4","","9.7","","100.12","","","","-12","","Snow"
"2009-01-19 19:00","2009","01","19","19:00"," ","-9.7","","-12.0","","83","","36","","4","","6.4","","100.13","","","","-12","","Snow"
"2009-01-19 20:00","2009","01","19","20:00"," ","-9.9","","-12.1","","84","","33","","6","","6.4","","100.11","","","","-13","","Snow"
"2009-01-19 21:00","2009","01","19","21:00"," ","-9.9","","-12.0","","85","","35","","4","","6.4","","100.15","","","","-12","","Snow"
"2009-01-19 22:00","2009","01","19","22:00"," ","-10.1","","-12.0","","86","","","","0","","4.8","","100.16","","","","","","Snow"
"2009-01-19 23:00","2009","01","19","23:00"," ","-10.5","","-12.5","","85","","33","","4","","4.8","","100.16","","","","-13","","Snow"
"2009-01-20 00:00","2009","01","20","00:00"," ","-10.3","","-12.3","","85","","33","","4","","6.4","","100.17","","","","-13","","Snow"
"2009-01-20 01:00","2009","01","20","01:00"," ","-12.6","","-14.4","","86","","29","","4","","9.7","","100.20","","","","-15","","Snow"
"2009-01-20 02:00","2009","01","20","02:00"," ","-13.4","","-15.2","","86","","25","","4","","8.0","","100.24","","","","-16","","Snow"
"2009-01-20 03:00","2009","01","20","03:00"," ","-14.2","","-16.1","","85","","","","0","","9.7","","100.25","","","","","","Snow,Fog"
"2009-01-20 04:00","2009","01","20","04:00"," ","-14.9","","-17.2","","83","","","","0","","4.8","","100.29","","","","","","Snow,Fog"
"2009-01-20 05:00","2009","01","20","05:00"," ","-14.9","","-17.0","","84","","","","0","","6.4","","100.29","","","","","","Snow"
"2009-01-20 06:00","2009","01","20","06:00"," ","-13.7","","-16.1","","82","","","","0","","8.0","","100.32","","","","","","Snow"
"2009-01-20 07:00","2009","01","20","07:00"," ","-12.8","","-14.9","","84","","24","","4","","4.8","","100.37","","","","-15","","Snow"
"2009-01-20 08:00","2009","01","20","08:00"," ","-13.4","","-15.6","","83","","","","0","","4.8","","100.41","","","","","","Snow"
"2009-01-20 09:00","2009","01","20","09:00"," ","-12.6","","-14.7","","84","","35","","7","","8.0","","100.44","","","","-17","","Snow"
"2009-01-20 10:00","2009","01","20","10:00"," ","-11.8","","-14.5","","80","","36","","13","","16.1","","100.43","","","","-18","","Mainly Clear"
"2009-01-20 11:00","2009","01","20","11:00"," ","-11.4","","-16.4","","66","","2","","9","","24.1","","100.43","","","","-17","","Mainly Clear"
"2009-01-20 12:00","2009","01","20","12:00"," ","-10.6","","-16.2","","63","","","","0","","24.1","","100.43","","","","","","Mainly Clear"
"2009-01-20 13:00","2009","01","20","13:00"," ","-9.5","","-15.3","","63","","27","","6","","24.1","","100.38","","","","-13","","Mainly Clear"
"2009-01-20 14:00","2009","01","20","14:00"," ","-9.4","","-14.2","","68","","21","","11","","24.1","","100.38","","","","-15","","Mainly Clear"
"2009-01-20 15:00","2009","01","20","15:00"," ","-9.9","","-14.9","","67","","25","","13","","24.1","","100.37","","","","-16","","Clear"
"2009-01-20 16:00","2009","01","20","16:00"," ","-10.4","","-14.8","","70","","21","","15","","24.1","","100.40","","","","-17","","Clear"
"2009-01-20 17:00","2009","01","20","17:00"," ","-11.0","","-15.9","","67","","23","","13","","24.1","","100.44","","","","-17","","Mainly Clear"
"2009-01-20 18:00","2009","01","20","18:00"," ","-11.6","","-16.3","","68","","24","","13","","25.0","","100.45","","","","-18","","Mainly Clear"
"2009-01-20 19:00","2009","01","20","19:00"," ","-12.3","","-16.5","","71","","25","","17","","25.0","","100.48","","","","-20","","Mainly Clear"
"2009-01-20 20:00","2009","01","20","20:00"," ","-13.3","","-17.1","","73","","24","","15","","25.0","","100.47","","","","-21","","Mostly Cloudy"
"2009-01-20 21:00","2009","01","20","21:00"," ","-13.4","","-16.9","","75","","25","","9","","25.0","","100.51","","","","-19","","Mostly Cloudy"
"2009-01-20 22:00","2009","01","20","22:00"," ","-13.7","","-17.2","","75","","23","","9","","25.0","","100.51","","","","-19","","Mostly Cloudy"
"2009-01-20 23:00","2009","01","20","23:00"," ","-13.7","","-17.4","","74","","27","","9","","25.0","","100.54","","","","-19","","Mostly Cloudy"
"2009-01-21 00:00","2009","01","21","00:00"," ","-15.8","","-19.1","","76","","21","","11","","25.0","","100.56","","","","-23","","Mainly Clear"
"2009-01-21 01:00","2009","01","21","01:00"," ","-17.4","","-21.8","","69","","21","","9","","25.0","","100.57","","","","-24","","Mainly Clear"
"2009-01-21 02:00","2009","01","21","02:00"," ","-18.5","","-21.8","","75","","22","","11","","25.0","","100.56","","","","-26","","Clear"
"2009-01-21 03:00","2009","01","21","03:00"," ","-18.5","","-23.3","","66","","22","","11","","25.0","","100.58","","","","-26","","Mainly Clear"
"2009-01-21 04:00","2009","01","21","04:00"," ","-19.2","","-23.7","","68","","22","","13","","25.0","","100.57","","","","-27","","Clear"
"2009-01-21 05:00","2009","01","21","05:00"," ","-19.6","","-24.0","","68","","22","","15","","25.0","","100.58","","","","-29","","Clear"
"2009-01-21 06:00","2009","01","21","06:00"," ","-19.4","","-23.8","","68","","24","","17","","25.0","","100.59","","","","-29","","Mainly Clear"
"2009-01-21 07:00","2009","01","21","07:00"," ","-19.4","","-23.9","","67","","24","","17","","24.1","","100.66","","","","-29","","Mainly Clear"
"2009-01-21 08:00","2009","01","21","08:00"," ","-19.0","","-23.5","","68","","25","","22","","24.1","","100.71","","","","-30","","Mostly Cloudy"
"2009-01-21 09:00","2009","01","21","09:00"," ","-18.6","","-23.2","","67","","23","","17","","24.1","","100.68","","","","-28","","Mostly Cloudy"
"2009-01-21 10:00","2009","01","21","10:00"," ","-15.9","","-20.9","","65","","22","","22","","24.1","","100.66","","","","-26","","Mostly Cloudy"
"2009-01-21 11:00","2009","01","21","11:00"," ","-14.2","","-19.8","","62","","24","","24","","24.1","","100.60","","","","-24","","Mostly Cloudy"
"2009-01-21 12:00","2009","01","21","12:00"," ","-12.7","","-17.0","","70","","23","","28","","12.9","","100.51","","","","-23","","Cloudy"
"2009-01-21 13:00","2009","01","21","13:00"," ","-11.4","","-15.2","","73","","23","","24","","16.1","","100.42","","","","-20","","Snow"
"2009-01-21 14:00","2009","01","21","14:00"," ","-10.4","","-13.5","","78","","22","","20","","4.0","","100.34","","","","-18","","Snow"
"2009-01-21 15:00","2009","01","21","15:00"," ","-9.0","","-11.9","","79","","23","","22","","6.4","","100.34","","","","-17","","Snow"
"2009-01-21 16:00","2009","01","21","16:00"," ","-8.9","","-11.5","","81","","25","","17","","12.9","","100.35","","","","-16","","Snow"
"2009-01-21 17:00","2009","01","21","17:00"," ","-8.4","","-11.0","","81","","25","","13","","16.1","","100.33","","","","-14","","Snow"
"2009-01-21 18:00","2009","01","21","18:00"," ","-7.6","","-10.0","","83","","24","","20","","9.7","","100.33","","","","-15","","Snow"
"2009-01-21 19:00","2009","01","21","19:00"," ","-7.4","","-9.9","","82","","25","","20","","12.9","","100.34","","","","-15","","Snow"
"2009-01-21 20:00","2009","01","21","20:00"," ","-7.2","","-9.8","","82","","26","","20","","12.9","","100.31","","","","-14","","Snow"
"2009-01-21 21:00","2009","01","21","21:00"," ","-6.9","","-9.3","","83","","25","","19","","12.9","","100.28","","","","-14","","Snow"
"2009-01-21 22:00","2009","01","21","22:00"," ","-6.5","","-9.0","","82","","25","","15","","9.7","","100.27","","","","-12","","Snow"
"2009-01-21 23:00","2009","01","21","23:00"," ","-6.2","","-8.4","","84","","23","","13","","9.7","","100.22","","","","-12","","Snow"
"2009-01-22 00:00","2009","01","22","00:00"," ","-6.0","","-8.1","","85","","25","","17","","9.7","","100.21","","","","-12","","Snow"
"2009-01-22 01:00","2009","01","22","01:00"," ","-5.7","","-7.9","","84","","23","","22","","11.3","","100.17","","","","-13","","Snow"
"2009-01-22 02:00","2009","01","22","02:00"," ","-5.3","","-7.8","","83","","23","","22","","9.7","","100.10","","","","-12","","Snow"
"2009-01-22 03:00","2009","01","22","03:00"," ","-4.9","","-7.5","","82","","23","","22","","9.7","","100.08","","","","-12","","Snow"
"2009-01-22 04:00","2009","01","22","04:00"," ","-5.0","","-7.1","","85","","23","","28","","6.4","","100.02","","","","-13","","Snow"
"2009-01-22 05:00","2009","01","22","05:00"," ","-4.6","","-7.0","","83","","23","","28","","4.8","","99.99","","","","-12","","Snow"
"2009-01-22 06:00","2009","01","22","06:00"," ","-4.6","","-6.7","","85","","24","","28","","4.8","","100.00","","","","-12","","Snow"
"2009-01-22 07:00","2009","01","22","07:00"," ","-4.3","","-6.3","","86","","25","","24","","4.0","","100.03","","","","-11","","Snow"
"2009-01-22 08:00","2009","01","22","08:00"," ","-4.3","","-6.3","","86","","25","","28","","9.7","","100.08","","","","-12","","Snow"
"2009-01-22 09:00","2009","01","22","09:00"," ","-3.5","","-6.5","","80","","24","","30","","11.3","","100.08","","","","-11","","Snow"
"2009-01-22 10:00","2009","01","22","10:00"," ","-3.3","","-6.2","","80","","25","","32","","19.3","","100.13","","","","-11","","Snow"
"2009-01-22 11:00","2009","01","22","11:00"," ","-2.5","","-5.4","","80","","25","","37","","19.3","","100.14","","","","-10","","Cloudy"
"2009-01-22 12:00","2009","01","22","12:00"," ","-2.1","","-5.4","","78","","26","","39","","19.3","","100.10","","","","-10","","Snow"
"2009-01-22 13:00","2009","01","22","13:00"," ","-1.8","","-5.5","","76","","26","","33","","24.1","","100.11","","","","-9","","Snow"
"2009-01-22 14:00","2009","01","22","14:00"," ","-1.3","","-5.4","","74","","26","","35","","24.1","","100.14","","","","-9","","Mostly Cloudy"
"2009-01-22 15:00","2009","01","22","15:00"," ","-1.2","","-5.8","","71","","27","","26","","24.1","","100.24","","","","-8","","Mostly Cloudy"
"2009-01-22 16:00","2009","01","22","16:00"," ","-1.0","","-5.6","","71","","26","","26","","19.3","","100.34","","","","-7","","Mostly Cloudy"
"2009-01-22 17:00","2009","01","22","17:00"," ","-1.7","","-5.7","","74","","25","","26","","16.1","","100.47","","","","-8","","Cloudy"
"2009-01-22 18:00","2009","01","22","18:00"," ","-1.4","","-5.0","","76","","26","","28","","16.1","","100.56","","","","-8","","Snow"
"2009-01-22 19:00","2009","01","22","19:00"," ","-1.8","","-4.8","","80","","27","","19","","9.7","","100.67","","","","-7","","Snow"
"2009-01-22 20:00","2009","01","22","20:00"," ","-2.0","","-14.7","","37","","27","","9","","12.9","","100.79","","","","-5","","Snow"
"2009-01-22 21:00","2009","01","22","21:00"," ","-3.4","","-9.5","","63","","35","","17","","12.9","","100.90","","","","-9","","Snow"
"2009-01-22 22:00","2009","01","22","22:00"," ","-4.1","","-10.9","","59","","34","","17","","25.0","","100.98","","","","-10","","Snow"
"2009-01-22 23:00","2009","01","22","23:00"," ","-4.7","","-12.2","","56","","35","","19","","25.0","","101.04","","","","-11","","Cloudy"
"2009-01-23 00:00","2009","01","23","00:00"," ","-7.2","","-13.8","","59","","4","","26","","25.0","","101.15","","","","-15","","Cloudy"
"2009-01-23 01:00","2009","01","23","01:00"," ","-8.9","","-14.8","","62","","5","","24","","19.3","","101.25","","","","-17","","Snow"
"2009-01-23 02:00","2009","01","23","02:00"," ","-10.2","","-16.0","","62","","6","","17","","25.0","","101.32","","","","-17","","Cloudy"
"2009-01-23 03:00","2009","01","23","03:00"," ","-11.6","","-17.6","","61","","7","","24","","25.0","","101.36","","","","-21","","Cloudy"
"2009-01-23 04:00","2009","01","23","04:00"," ","-12.3","","-18.8","","58","","7","","19","","25.0","","101.36","","","","-21","","Cloudy"
"2009-01-23 05:00","2009","01","23","05:00"," ","-12.3","","-19.4","","55","","6","","19","","25.0","","101.33","","","","-21","","Cloudy"
"2009-01-23 06:00","2009","01","23","06:00"," ","-12.4","","-19.3","","56","","6","","20","","25.0","","101.30","","","","-21","","Snow"
"2009-01-23 07:00","2009","01","23","07:00"," ","-13.0","","-19.5","","58","","5","","26","","25.0","","101.27","","","","-23","","Snow"
"2009-01-23 08:00","2009","01","23","08:00"," ","-13.1","","-22.8","","44","","5","","22","","24.1","","101.26","","","","-22","","Cloudy"
"2009-01-23 09:00","2009","01","23","09:00"," ","-13.4","","-21.0","","53","","5","","30","","19.3","","101.20","","","","-24","","Snow"
"2009-01-23 10:00","2009","01","23","10:00"," ","-13.0","","-19.9","","56","","5","","24","","16.1","","101.09","","","","-22","","Snow"
"2009-01-23 11:00","2009","01","23","11:00"," ","-13.7","","-19.7","","60","","6","","30","","4.8","","100.94","","","","-24","","Snow"
"2009-01-23 12:00","2009","01","23","12:00"," ","-14.0","","-18.8","","67","","5","","24","","12.9","","100.72","","","","-24","","Snow"
"2009-01-23 13:00","2009","01","23","13:00"," ","-13.8","","-18.2","","69","","4","","20","","16.1","","100.53","","","","-23","","Cloudy"
"2009-01-23 14:00","2009","01","23","14:00"," ","-13.6","","-17.5","","72","","4","","22","","12.9","","100.39","","","","-23","","Snow"
"2009-01-23 15:00","2009","01","23","15:00"," ","-12.7","","-16.3","","74","","3","","20","","16.1","","100.24","","","","-21","","Snow"
"2009-01-23 16:00","2009","01","23","16:00"," ","-12.5","","-15.5","","78","","3","","20","","16.1","","100.11","","","","-21","","Snow"
"2009-01-23 17:00","2009","01","23","17:00"," ","-12.6","","-15.0","","82","","2","","19","","16.1","","100.02","","","","-21","","Snow"
"2009-01-23 18:00","2009","01","23","18:00"," ","-13.3","","-15.6","","83","","2","","24","","19.3","","99.94","","","","-23","","Snow"
"2009-01-23 19:00","2009","01","23","19:00"," ","-12.8","","-15.1","","83","","2","","17","","19.3","","99.83","","","","-21","","Snow"
"2009-01-23 20:00","2009","01","23","20:00"," ","-12.3","","-14.6","","83","","5","","13","","16.1","","99.64","","","","-19","","Snow"
"2009-01-23 21:00","2009","01","23","21:00"," ","-11.9","","-14.3","","82","","35","","15","","19.3","","99.60","","","","-19","","Snow"
"2009-01-23 22:00","2009","01","23","22:00"," ","-11.8","","-13.7","","86","","33","","9","","4.0","","99.60","","","","-17","","Snow,Ice Pellets"
"2009-01-23 23:00","2009","01","23","23:00"," ","-11.5","","-13.4","","86","","27","","9","","6.4","","99.73","","","","-17","","Snow"
"2009-01-24 00:00","2009","01","24","00:00"," ","-10.7","","-12.7","","85","","26","","11","","6.4","","99.86","","","","-16","","Snow"
"2009-01-24 01:00","2009","01","24","01:00"," ","-9.7","","-11.8","","85","","26","","26","","9.7","","99.97","","","","-19","","Snow"
"2009-01-24 02:00","2009","01","24","02:00"," ","-9.1","","-11.7","","81","","22","","17","","19.3","","100.17","","","","-16","","Cloudy"
"2009-01-24 03:00","2009","01","24","03:00"," ","-8.5","","-12.7","","72","","28","","28","","25.0","","100.30","","","","-17","","Cloudy"
"2009-01-24 04:00","2009","01","24","04:00"," ","-10.0","","-15.5","","64","","30","","28","","25.0","","100.46","","","","-19","","Cloudy"
"2009-01-24 05:00","2009","01","24","05:00"," ","-12.2","","-17.3","","66","","28","","32","","25.0","","100.63","","","","-23","","Mainly Clear"
"2009-01-24 06:00","2009","01","24","06:00"," ","-14.2","","-19.2","","66","","28","","26","","25.0","","100.83","","","","-24","","Mainly Clear"
"2009-01-24 07:00","2009","01","24","07:00"," ","-16.0","","-22.0","","60","","28","","28","","24.1","","101.05","","","","-27","","Mainly Clear"
"2009-01-24 08:00","2009","01","24","08:00"," ","-17.2","","-24.4","","54","","29","","24","","24.1","","101.24","","","","-28","","Mainly Clear"
"2009-01-24 09:00","2009","01","24","09:00"," ","-17.6","","-25.5","","50","","30","","26","","24.1","","101.37","","","","-29","","Clear"
"2009-01-24 10:00","2009","01","24","10:00"," ","-19.1","","-26.8","","51","","28","","28","","24.1","","101.49","","","","-31","","Clear"
"2009-01-24 11:00","2009","01","24","11:00"," ","-19.6","","-27.7","","49","","29","","24","","48.3","","101.56","","","","-31","","Clear"
"2009-01-24 12:00","2009","01","24","12:00"," ","-19.5","","-27.7","","48","","26","","32","","48.3","","101.63","","","","-32","","Clear"
"2009-01-24 13:00","2009","01","24","13:00"," ","-19.9","","-27.9","","49","","26","","32","","48.3","","101.67","","","","-33","","Clear"
"2009-01-24 14:00","2009","01","24","14:00"," ","-19.6","","-28.3","","46","","27","","33","","48.3","","101.72","","","","-33","","Clear"
"2009-01-24 15:00","2009","01","24","15:00"," ","-19.3","","-28.1","","46","","27","","30","","48.3","","101.77","","","","-32","","Clear"
"2009-01-24 16:00","2009","01","24","16:00"," ","-19.2","","-28.1","","45","","26","","28","","48.3","","101.84","","","","-31","","Clear"
"2009-01-24 17:00","2009","01","24","17:00"," ","-20.1","","-28.5","","47","","25","","28","","25.0","","101.89","","","","-32","","Clear"
"2009-01-24 18:00","2009","01","24","18:00"," ","-20.6","","-29.0","","47","","25","","24","","25.0","","101.90","","","","-32","","Clear"
"2009-01-24 19:00","2009","01","24","19:00"," ","-20.6","","-29.5","","45","","26","","22","","25.0","","101.93","","","","-32","","Clear"
"2009-01-24 20:00","2009","01","24","20:00"," ","-21.3","","-29.9","","46","","25","","11","","25.0","","101.93","","","","-29","","Clear"
"2009-01-24 21:00","2009","01","24","21:00"," ","-21.1","","-29.4","","47","","22","","7","","25.0","","101.89","","","","-27","","Clear"
"2009-01-24 22:00","2009","01","24","22:00"," ","-21.6","","-29.3","","50","","21","","7","","25.0","","101.86","","","","-28","","Clear"
"2009-01-24 23:00","2009","01","24","23:00"," ","-21.6","","-29.1","","51","","","","0","","25.0","","101.85","","","","","","Cloudy"
"2009-01-25 00:00","2009","01","25","00:00"," ","-19.2","","-24.9","","61","","18","","13","","25.0","","101.76","","","","-27","","Mostly Cloudy"
"2009-01-25 01:00","2009","01","25","01:00"," ","-18.6","","-24.4","","60","","22","","6","","25.0","","101.69","","","","-23","","Cloudy"
"2009-01-25 02:00","2009","01","25","02:00"," ","-17.7","","-23.6","","60","","21","","9","","16.1","","101.65","","","","-24","","Snow"
"2009-01-25 03:00","2009","01","25","03:00"," ","-16.8","","-22.3","","62","","25","","6","","25.0","","101.61","","","","-21","","Cloudy"
"2009-01-25 04:00","2009","01","25","04:00"," ","-16.1","","-21.8","","61","","25","","15","","4.8","","101.52","","","","-24","","Snow"
"2009-01-25 05:00","2009","01","25","05:00"," ","-14.5","","-18.0","","75","","24","","15","","8.0","","101.43","","","","-22","","Snow"
"2009-01-25 06:00","2009","01","25","06:00"," ","-12.5","","-16.2","","74","","24","","24","","25.0","","101.38","","","","-22","","Mostly Cloudy"
"2009-01-25 07:00","2009","01","25","07:00"," ","-12.8","","-16.7","","73","","26","","17","","9.7","","101.41","","","","-21","","Snow"
"2009-01-25 08:00","2009","01","25","08:00"," ","-12.9","","-16.5","","74","","26","","20","","9.7","","101.45","","","","-22","","Snow"
"2009-01-25 09:00","2009","01","25","09:00"," ","-16.5","","-20.3","","72","","35","","6","","4.8","","101.53","","","","-21","","Snow"
"2009-01-25 10:00","2009","01","25","10:00"," ","-14.9","","-18.3","","75","","30","","7","","12.9","","101.55","","","","-20","","Snow"
"2009-01-25 11:00","2009","01","25","11:00"," ","-12.3","","-16.1","","73","","28","","30","","4.0","","101.58","","","","-23","","Snow"
"2009-01-25 12:00","2009","01","25","12:00"," ","-12.7","","-16.7","","72","","28","","19","","6.4","","101.61","","","","-21","","Snow"
"2009-01-25 13:00","2009","01","25","13:00"," ","-12.9","","-17.9","","66","","29","","19","","19.3","","101.62","","","","-21","","Snow"
"2009-01-25 14:00","2009","01","25","14:00"," ","-12.4","","-19.7","","54","","29","","17","","24.1","","101.69","","","","-20","","Mainly Clear"
"2009-01-25 15:00","2009","01","25","15:00"," ","-12.1","","-19.5","","54","","29","","15","","48.3","","101.78","","","","-19","","Mainly Clear"
"2009-01-25 16:00","2009","01","25","16:00"," ","-12.7","","-20.9","","50","","28","","17","","48.3","","101.88","","","","-21","","Mainly Clear"
"2009-01-25 17:00","2009","01","25","17:00"," ","-13.6","","-22.1","","49","","31","","13","","25.0","","101.95","","","","-21","","Mainly Clear"
"2009-01-25 18:00","2009","01","25","18:00"," ","-14.7","","-23.4","","48","","36","","15","","25.0","","102.06","","","","-23","","Mostly Cloudy"
"2009-01-25 19:00","2009","01","25","19:00"," ","-16.1","","-25.6","","44","","36","","13","","25.0","","102.13","","","","-24","","Clear"
"2009-01-25 20:00","2009","01","25","20:00"," ","-17.3","","-26.5","","45","","1","","13","","25.0","","102.21","","","","-25","","Clear"
"2009-01-25 21:00","2009","01","25","21:00"," ","-16.9","","-23.7","","56","","6","","13","","25.0","","102.29","","","","-25","","Mostly Cloudy"
"2009-01-25 22:00","2009","01","25","22:00"," ","-17.0","","-24.2","","54","","5","","9","","25.0","","102.33","","","","-23","","Mainly Clear"
"2009-01-25 23:00","2009","01","25","23:00"," ","-17.6","","-25.0","","52","","5","","13","","25.0","","102.39","","","","-25","","Mainly Clear"
"2009-01-26 00:00","2009","01","26","00:00"," ","-18.2","","-25.6","","52","","4","","13","","25.0","","102.41","","","","-26","","Clear"
"2009-01-26 01:00","2009","01","26","01:00"," ","-18.8","","-24.6","","60","","4","","11","","25.0","","102.48","","","","-26","","Clear"
"2009-01-26 02:00","2009","01","26","02:00"," ","-19.8","","-25.6","","60","","9","","4","","25.0","","102.53","","","","-23","","Clear"
"2009-01-26 03:00","2009","01","26","03:00"," ","-23.3","","-28.8","","61","","35","","4","","25.0","","102.54","","","","-27","","Clear"
"2009-01-26 04:00","2009","01","26","04:00"," ","-23.1","","-27.5","","67","","36","","7","","25.0","","102.52","","","","-29","","Clear"
"2009-01-26 05:00","2009","01","26","05:00"," ","-23.0","","-27.0","","70","","36","","6","","25.0","","102.52","","","","-28","","Clear"
"2009-01-26 06:00","2009","01","26","06:00"," ","-23.0","","-26.9","","70","","1","","7","","25.0","","102.51","","","","-29","","Clear"
"2009-01-26 07:00","2009","01","26","07:00"," ","-23.4","","-27.9","","66","","3","","9","","24.1","","102.54","","","","-31","","Clear"
"2009-01-26 08:00","2009","01","26","08:00"," ","-24.7","","-29.4","","65","","35","","6","","19.3","","102.60","","","","-30","","Mostly Cloudy"
"2009-01-26 09:00","2009","01","26","09:00"," ","-22.6","","-26.8","","69","","3","","9","","16.1","","102.61","","","","-30","","Clear"
"2009-01-26 10:00","2009","01","26","10:00"," ","-21.2","","-25.1","","71","","2","","6","","12.9","","102.58","","","","-26","","Mainly Clear"
"2009-01-26 11:00","2009","01","26","11:00"," ","-19.5","","-23.9","","68","","1","","7","","9.7","","102.54","","","","-25","","Haze"
"2009-01-26 12:00","2009","01","26","12:00"," ","-16.6","","-21.6","","65","","3","","7","","9.7","","102.45","","","","-22","","Haze"
"2009-01-26 13:00","2009","01","26","13:00"," ","-15.3","","-20.7","","63","","9","","4","","9.7","","102.36","","","","-18","","Snow,Haze"
"2009-01-26 14:00","2009","01","26","14:00"," ","-14.9","","-19.4","","68","","9","","7","","9.7","","102.29","","","","-20","","Snow,Haze"
"2009-01-26 15:00","2009","01","26","15:00"," ","-13.6","","-19.2","","63","","13","","4","","12.9","","102.29","","","","-16","","Mainly Clear"
"2009-01-26 16:00","2009","01","26","16:00"," ","-13.8","","-19.2","","64","","1","","4","","12.9","","102.24","","","","-17","","Mostly Cloudy"
"2009-01-26 17:00","2009","01","26","17:00"," ","-13.7","","-19.5","","62","","32","","4","","12.9","","102.22","","","","-16","","Mostly Cloudy"
"2009-01-26 18:00","2009","01","26","18:00"," ","-15.0","","-20.0","","66","","31","","4","","19.3","","102.27","","","","-18","","Mainly Clear"
"2009-01-26 19:00","2009","01","26","19:00"," ","-16.3","","-20.6","","69","","36","","4","","16.1","","102.27","","","","-19","","Mainly Clear"
"2009-01-26 20:00","2009","01","26","20:00"," ","-15.6","","-19.8","","70","","","","0","","12.9","","102.28","","","","","","Mostly Cloudy"
"2009-01-26 21:00","2009","01","26","21:00"," ","-16.8","","-20.5","","73","","36","","4","","12.9","","102.28","","","","-20","","Mostly Cloudy"
"2009-01-26 22:00","2009","01","26","22:00"," ","-15.5","","-18.9","","75","","33","","7","","9.7","","102.27","","","","-20","","Haze"
"2009-01-26 23:00","2009","01","26","23:00"," ","-15.9","","-20.1","","70","","","","0","","9.7","","102.26","","","","","","Haze"
"2009-01-27 00:00","2009","01","27","00:00"," ","-14.2","","-17.4","","77","","25","","4","","9.7","","102.26","","","","-17","","Snow,Haze"
"2009-01-27 01:00","2009","01","27","01:00"," ","-14.1","","-17.3","","77","","23","","4","","9.7","","102.30","","","","-17","","Snow,Haze"
"2009-01-27 02:00","2009","01","27","02:00"," ","-13.6","","-17.1","","75","","21","","7","","9.7","","102.33","","","","-18","","Snow,Haze"
"2009-01-27 03:00","2009","01","27","03:00"," ","-13.4","","-16.8","","76","","","","0","","9.7","","102.33","","","","","","Snow,Haze"
"2009-01-27 04:00","2009","01","27","04:00"," ","-14.7","","-17.8","","77","","19","","7","","12.9","","102.35","","","","-19","","Mostly Cloudy"
"2009-01-27 05:00","2009","01","27","05:00"," ","-16.3","","-20.2","","72","","27","","7","","12.9","","102.40","","","","-21","","Mainly Clear"
"2009-01-27 06:00","2009","01","27","06:00"," ","-14.6","","-17.8","","77","","27","","17","","25.0","","102.43","","","","-23","","Mainly Clear"
"2009-01-27 07:00","2009","01","27","07:00"," ","-15.9","","-19.4","","74","","28","","11","","19.3","","102.54","","","","-23","","Mainly Clear"
"2009-01-27 08:00","2009","01","27","08:00"," ","-14.5","","-17.9","","75","","25","","9","","24.1","","102.62","","","","-20","","Clear"
"2009-01-27 09:00","2009","01","27","09:00"," ","-13.5","","-17.8","","70","","27","","7","","24.1","","102.74","","","","-18","","Clear"
"2009-01-27 10:00","2009","01","27","10:00"," ","-12.7","","-17.4","","68","","27","","11","","24.1","","102.76","","","","-19","","Clear"
"2009-01-27 11:00","2009","01","27","11:00"," ","-11.6","","-17.0","","64","","28","","17","","24.1","","102.79","","","","-19","","Mainly Clear"
"2009-01-27 12:00","2009","01","27","12:00"," ","-10.5","","-16.8","","60","","26","","11","","24.1","","102.73","","","","-16","","Clear"
"2009-01-27 13:00","2009","01","27","13:00"," ","-9.9","","-17.3","","55","","27","","15","","24.1","","102.66","","","","-17","","Clear"
"2009-01-27 14:00","2009","01","27","14:00"," ","-9.7","","-16.0","","60","","23","","13","","24.1","","102.65","","","","-16","","Mainly Clear"
"2009-01-27 15:00","2009","01","27","15:00"," ","-9.4","","-17.0","","54","","23","","17","","24.1","","102.66","","","","-16","","Mainly Clear"
"2009-01-27 16:00","2009","01","27","16:00"," ","-9.4","","-17.5","","52","","22","","15","","24.1","","102.67","","","","-16","","Clear"
"2009-01-27 17:00","2009","01","27","17:00"," ","-10.0","","-17.7","","53","","23","","11","","24.1","","102.71","","","","-16","","Mainly Clear"
"2009-01-27 18:00","2009","01","27","18:00"," ","-10.6","","-18.1","","54","","23","","9","","25.0","","102.71","","","","-16","","Mainly Clear"
"2009-01-27 19:00","2009","01","27","19:00"," ","-12.1","","-19.1","","56","","","","0","","25.0","","102.65","","","","","","Mainly Clear"
"2009-01-27 20:00","2009","01","27","20:00"," ","-13.0","","-18.9","","61","","18","","4","","25.0","","102.68","","","","-16","","Mainly Clear"
"2009-01-27 21:00","2009","01","27","21:00"," ","-14.2","","-18.2","","72","","22","","6","","25.0","","102.69","","","","-18","","Mainly Clear"
"2009-01-27 22:00","2009","01","27","22:00"," ","-13.4","","-17.3","","72","","","","0","","25.0","","102.61","","","","","","Mostly Cloudy"
"2009-01-27 23:00","2009","01","27","23:00"," ","-13.5","","-16.5","","78","","12","","6","","25.0","","102.56","","","","-18","","Mostly Cloudy"
"2009-01-28 00:00","2009","01","28","00:00"," ","-13.2","","-17.9","","68","","14","","9","","25.0","","102.48","","","","-19","","Mostly Cloudy"
"2009-01-28 01:00","2009","01","28","01:00"," ","-12.5","","-16.5","","72","","11","","7","","25.0","","102.42","","","","-17","","Mostly Cloudy"
"2009-01-28 02:00","2009","01","28","02:00"," ","-12.5","","-15.9","","76","","10","","7","","25.0","","102.43","","","","-17","","Mostly Cloudy"
"2009-01-28 03:00","2009","01","28","03:00"," ","-11.7","","-16.0","","70","","3","","6","","25.0","","102.35","","","","-15","","Cloudy"
"2009-01-28 04:00","2009","01","28","04:00"," ","-13.2","","-16.7","","75","","3","","13","","25.0","","102.26","","","","-20","","Cloudy"
"2009-01-28 05:00","2009","01","28","05:00"," ","-14.0","","-17.3","","76","","3","","19","","25.0","","102.18","","","","-23","","Cloudy"
"2009-01-28 06:00","2009","01","28","06:00"," ","-13.4","","-17.1","","74","","3","","19","","25.0","","102.07","","","","-22","","Cloudy"
"2009-01-28 07:00","2009","01","28","07:00"," ","-13.0","","-17.4","","70","","4","","15","","19.3","","101.96","","","","-20","","Cloudy"
"2009-01-28 08:00","2009","01","28","08:00"," ","-13.1","","-16.6","","75","","4","","19","","2.0","","101.87","","","","-22","","Snow"
"2009-01-28 09:00","2009","01","28","09:00"," ","-13.4","","-16.6","","77","","5","","24","","2.4","","101.73","","","","-23","","Snow"
"2009-01-28 10:00","2009","01","28","10:00"," ","-13.3","","-16.3","","78","","4","","24","","1.2","","101.52","","","","-23","","Snow"
"2009-01-28 11:00","2009","01","28","11:00"," ","-13.0","","-16.1","","78","","4","","28","","1.2","","101.39","","","","-23","","Snow"
"2009-01-28 12:00","2009","01","28","12:00"," ","-12.4","","-15.0","","81","","4","","24","","1.0","","101.11","","","","-22","","Snow"
"2009-01-28 13:00","2009","01","28","13:00"," ","-11.4","","-13.7","","83","","5","","28","","1.0","","100.83","","","","-21","","Snow"
"2009-01-28 14:00","2009","01","28","14:00"," ","-10.2","","-12.4","","84","","4","","32","","1.0","","100.49","","","","-20","","Snow"
"2009-01-28 15:00","2009","01","28","15:00"," ","-9.3","","-11.3","","85","","4","","30","","0.8","","100.32","","","","-19","","Moderate Snow"
"2009-01-28 16:00","2009","01","28","16:00"," ","-8.9","","-10.8","","86","","4","","28","","1.2","","100.06","","","","-18","","Snow"
"2009-01-28 17:00","2009","01","28","17:00"," ","-8.7","","-10.7","","85","","4","","33","","1.2","","99.82","","","","-18","","Snow"
"2009-01-28 18:00","2009","01","28","18:00"," ","-8.3","","-10.3","","85","","4","","35","","0.8","","99.66","","","","-18","","Moderate Snow"
"2009-01-28 19:00","2009","01","28","19:00"," ","-8.3","","-10.1","","87","","4","","30","","0.8","","99.50","","","","-17","","Moderate Snow"
"2009-01-28 20:00","2009","01","28","20:00"," ","-8.1","","-9.8","","88","","4","","30","","1.6","","99.32","","","","-17","","Snow"
"2009-01-28 21:00","2009","01","28","21:00"," ","-7.7","","-9.6","","86","","2","","20","","2.0","","99.23","","","","-15","","Snow"
"2009-01-28 22:00","2009","01","28","22:00"," ","-7.9","","-9.7","","87","","34","","15","","1.6","","99.23","","","","-14","","Snow"
"2009-01-28 23:00","2009","01","28","23:00"," ","-8.1","","-9.7","","88","","29","","20","","1.6","","99.41","","","","-15","","Snow"
"2009-01-29 00:00","2009","01","29","00:00"," ","-7.4","","-9.0","","88","","27","","19","","1.6","","99.57","","","","-14","","Snow"
"2009-01-29 01:00","2009","01","29","01:00"," ","-7.3","","-8.8","","89","","26","","22","","6.4","","99.71","","","","-15","","Snow"
"2009-01-29 02:00","2009","01","29","02:00"," ","-7.5","","-9.3","","87","","25","","30","","12.9","","99.88","","","","-16","","Snow"
"2009-01-29 03:00","2009","01","29","03:00"," ","-8.4","","-11.0","","81","","26","","33","","25.0","","100.03","","","","-18","","Mostly Cloudy"
"2009-01-29 04:00","2009","01","29","04:00"," ","-9.4","","-11.9","","82","","26","","37","","25.0","","100.12","","","","-20","","Mostly Cloudy"
"2009-01-29 05:00","2009","01","29","05:00"," ","-10.2","","-12.9","","81","","25","","26","","25.0","","100.20","","","","-19","","Mainly Clear"
"2009-01-29 06:00","2009","01","29","06:00"," ","-10.7","","-13.7","","79","","25","","28","","25.0","","100.36","","","","-20","","Clear"
"2009-01-29 07:00","2009","01","29","07:00"," ","-11.1","","-14.2","","78","","23","","24","","24.1","","100.48","","","","-20","","Mainly Clear"
"2009-01-29 08:00","2009","01","29","08:00"," ","-11.4","","-14.5","","78","","24","","22","","24.1","","100.58","","","","-20","","Mostly Cloudy"
"2009-01-29 09:00","2009","01","29","09:00"," ","-11.0","","-14.3","","77","","24","","28","","24.1","","100.64","","","","-21","","Mostly Cloudy"
"2009-01-29 10:00","2009","01","29","10:00"," ","-10.7","","-14.1","","76","","25","","22","","24.1","","100.66","","","","-19","","Mostly Cloudy"
"2009-01-29 11:00","2009","01","29","11:00"," ","-9.7","","-13.6","","73","","25","","26","","24.1","","100.66","","","","-19","","Cloudy"
"2009-01-29 12:00","2009","01","29","12:00"," ","-9.3","","-13.4","","72","","25","","24","","24.1","","100.63","","","","-18","","Mostly Cloudy"
"2009-01-29 13:00","2009","01","29","13:00"," ","-8.3","","-12.6","","71","","24","","24","","24.1","","100.62","","","","-16","","Mostly Cloudy"
"2009-01-29 14:00","2009","01","29","14:00"," ","-7.5","","-12.1","","70","","25","","17","","24.1","","100.61","","","","-14","","Cloudy"
"2009-01-29 15:00","2009","01","29","15:00"," ","-6.4","","-11.6","","67","","25","","17","","24.1","","100.62","","","","-13","","Mostly Cloudy"
"2009-01-29 16:00","2009","01","29","16:00"," ","-6.4","","-11.5","","67","","23","","13","","24.1","","100.65","","","","-12","","Cloudy"
"2009-01-29 17:00","2009","01","29","17:00"," ","-6.4","","-11.2","","69","","23","","6","","24.1","","100.68","","","","-9","","Cloudy"
"2009-01-29 18:00","2009","01","29","18:00"," ","-5.9","","-10.4","","70","","22","","6","","25.0","","100.66","","","","-9","","Cloudy"
"2009-01-29 19:00","2009","01","29","19:00"," ","-5.7","","-9.8","","73","","22","","11","","25.0","","100.65","","","","-10","","Cloudy"
"2009-01-29 20:00","2009","01","29","20:00"," ","-5.5","","-9.5","","73","","22","","15","","25.0","","100.63","","","","-11","","Snow"
"2009-01-29 21:00","2009","01","29","21:00"," ","-5.4","","-8.9","","76","","23","","20","","16.1","","100.62","","","","-12","","Snow"
"2009-01-29 22:00","2009","01","29","22:00"," ","-5.4","","-8.4","","79","","23","","17","","11.3","","100.58","","","","-11","","Snow"
"2009-01-29 23:00","2009","01","29","23:00"," ","-5.5","","-8.2","","81","","23","","9","","9.7","","100.55","","","","-10","","Snow"
"2009-01-30 00:00","2009","01","30","00:00"," ","-5.8","","-8.3","","82","","22","","6","","12.9","","100.51","","","","-9","","Snow"
"2009-01-30 01:00","2009","01","30","01:00"," ","-5.5","","-8.2","","81","","23","","19","","25.0","","100.48","","","","-12","","Cloudy"
"2009-01-30 02:00","2009","01","30","02:00"," ","-5.5","","-8.1","","82","","23","","13","","25.0","","100.48","","","","-11","","Cloudy"
"2009-01-30 03:00","2009","01","30","03:00"," ","-5.6","","-8.0","","83","","22","","9","","16.1","","100.49","","","","-10","","Snow"
"2009-01-30 04:00","2009","01","30","04:00"," ","-5.4","","-7.6","","84","","22","","11","","8.0","","100.46","","","","-10","","Snow"
"2009-01-30 05:00","2009","01","30","05:00"," ","-5.4","","-7.2","","87","","19","","11","","4.8","","100.45","","","","-10","","Snow"
"2009-01-30 06:00","2009","01","30","06:00"," ","-5.1","","-7.1","","86","","22","","13","","8.0","","100.44","","","","-10","","Snow"
"2009-01-30 07:00","2009","01","30","07:00"," ","-4.8","","-7.3","","83","","22","","13","","6.4","","100.44","","","","-10","","Snow"
"2009-01-30 08:00","2009","01","30","08:00"," ","-5.0","","-6.9","","86","","23","","7","","6.4","","100.45","","","","-8","","Snow,Fog"
"2009-01-30 09:00","2009","01","30","09:00"," ","-4.8","","-7.0","","85","","23","","7","","8.0","","100.44","","","","-8","","Snow,Fog"
"2009-01-30 10:00","2009","01","30","10:00"," ","-4.5","","-6.8","","84","","23","","6","","8.0","","100.40","","","","-7","","Snow,Fog"
"2009-01-30 11:00","2009","01","30","11:00"," ","-4.3","","-6.9","","82","","18","","7","","4.8","","100.36","","","","-7","","Snow,Fog"
"2009-01-30 12:00","2009","01","30","12:00"," ","-4.5","","-6.5","","86","","15","","7","","4.0","","100.27","","","","-8","","Snow,Fog"
"2009-01-30 13:00","2009","01","30","13:00"," ","-4.3","","-6.3","","86","","13","","9","","2.4","","100.19","","","","-8","","Snow,Fog"
"2009-01-30 14:00","2009","01","30","14:00"," ","-3.8","","-5.7","","87","","13","","11","","4.8","","100.15","","","","-8","","Snow,Fog"
"2009-01-30 15:00","2009","01","30","15:00"," ","-3.2","","-5.2","","86","","14","","11","","6.4","","100.14","","","","-7","","Snow,Fog"
"2009-01-30 16:00","2009","01","30","16:00"," ","-2.9","","-4.6","","88","","17","","15","","3.2","","100.16","","","","-8","","Snow,Fog"
"2009-01-30 17:00","2009","01","30","17:00"," ","-2.5","","-4.8","","84","","19","","9","","12.9","","100.18","","","","-6","","Snow"
"2009-01-30 18:00","2009","01","30","18:00"," ","-2.7","","-8.7","","63","","23","","22","","12.9","","100.20","","","","-9","","Snow"
"2009-01-30 19:00","2009","01","30","19:00"," ","-3.6","","-9.6","","63","","24","","30","","16.1","","100.21","","","","-11","","Snow"
"2009-01-30 20:00","2009","01","30","20:00"," ","-4.4","","-9.4","","68","","23","","24","","19.3","","100.21","","","","-11","","Snow"
"2009-01-30 21:00","2009","01","30","21:00"," ","-4.8","","-7.8","","79","","23","","26","","9.7","","100.21","","","","-12","","Snow"
"2009-01-30 22:00","2009","01","30","22:00"," ","-5.0","","-7.3","","84","","25","","24","","9.7","","100.20","","","","-12","","Snow"
"2009-01-30 23:00","2009","01","30","23:00"," ","-5.4","","-7.5","","85","","25","","19","","12.9","","100.20","","","","-12","","Snow"
"2009-01-31 00:00","2009","01","31","00:00"," ","-5.4","","-7.6","","84","","23","","20","","8.0","","100.21","","","","-12","","Snow"
"2009-01-31 01:00","2009","01","31","01:00"," ","-6.0","","-8.5","","82","","24","","24","","16.1","","100.21","","","","-13","","Cloudy"
"2009-01-31 02:00","2009","01","31","02:00"," ","-6.0","","-9.6","","76","","24","","17","","11.3","","100.26","","","","-12","","Cloudy"
"2009-01-31 03:00","2009","01","31","03:00"," ","-6.8","","-9.0","","84","","22","","19","","2.4","","100.29","","","","-14","","Snow"
"2009-01-31 04:00","2009","01","31","04:00"," ","-7.8","","-10.8","","79","","24","","26","","4.8","","100.32","","","","-16","","Snow"
"2009-01-31 05:00","2009","01","31","05:00"," ","-8.5","","-12.5","","73","","24","","26","","19.3","","100.32","","","","-17","","Snow"
"2009-01-31 06:00","2009","01","31","06:00"," ","-10.9","","-14.1","","77","","25","","30","","16.1","","100.38","","","","-21","","Snow"
"2009-01-31 07:00","2009","01","31","07:00"," ","-12.7","","-15.6","","79","","25","","30","","12.9","","100.46","","","","-23","","Cloudy"
"2009-01-31 08:00","2009","01","31","08:00"," ","-14.3","","-17.6","","76","","25","","26","","24.1","","100.58","","","","-24","","Mostly Cloudy"
"2009-01-31 09:00","2009","01","31","09:00"," ","-15.0","","-18.5","","75","","24","","33","","24.1","","100.68","","","","-27","","Mainly Clear"
"2009-01-31 10:00","2009","01","31","10:00"," ","-15.8","","-19.4","","74","","25","","35","","24.1","","100.75","","","","-28","","Clear"
"2009-01-31 11:00","2009","01","31","11:00"," ","-15.7","","-20.6","","66","","25","","37","","24.1","","100.79","","","","-28","","Mainly Clear"
"2009-01-31 12:00","2009","01","31","12:00"," ","-15.7","","-22.3","","57","","25","","37","","24.1","","100.80","","","","-28","","Mainly Clear"
"2009-01-31 13:00","2009","01","31","13:00"," ","-15.4","","-22.5","","55","","25","","30","","24.1","","100.81","","","","-27","","Mainly Clear"
"2009-01-31 14:00","2009","01","31","14:00"," ","-15.2","","-21.4","","59","","25","","37","","24.1","","100.82","","","","-27","","Clear"
"2009-01-31 15:00","2009","01","31","15:00"," ","-14.6","","-22.4","","51","","25","","28","","48.3","","100.89","","","","-25","","Clear"
"2009-01-31 16:00","2009","01","31","16:00"," ","-14.8","","-22.8","","51","","24","","24","","48.3","","100.94","","","","-25","","Clear"
"2009-01-31 17:00","2009","01","31","17:00"," ","-15.1","","-23.5","","49","","25","","20","","25.0","","100.98","","","","-24","","Clear"
"2009-01-31 18:00","2009","01","31","18:00"," ","-16.9","","-24.4","","52","","29","","11","","25.0","","101.00","","","","-24","","Clear"
"2009-01-31 19:00","2009","01","31","19:00"," ","-17.4","","-24.6","","53","","27","","11","","25.0","","101.02","","","","-25","","Clear"
"2009-01-31 20:00","2009","01","31","20:00"," ","-16.6","","-24.1","","52","","25","","4","","25.0","","101.02","","","","-20","","Clear"
"2009-01-31 21:00","2009","01","31","21:00"," ","-17.5","","-24.1","","56","","26","","6","","25.0","","101.02","","","","-22","","Clear"
"2009-01-31 22:00","2009","01","31","22:00"," ","-17.3","","-23.0","","61","","13","","6","","25.0","","100.99","","","","-22","","Clear"
"2009-01-31 23:00","2009","01","31","23:00"," ","-19.1","","-23.8","","66","","","","0","","25.0","","100.97","","","","","","Mainly Clear"
